{
"type": "FeatureCollection",
"name": "batasadm",
"crs": { "type": "name", "properties": { "name": "urn:ogc:def:crs:OGC:1.3:CRS84" } },
"features": [
{ "type": "Feature", "properties": { "objectid": 6683, "namobj": "Sikasur", "fcode": "BA03070040", "remark": null, "metadata": "TASWIL1000020230928_DATA_BATAS_DESAKELURAHAN", "srs_id": "SRGI 2013", "kdbbps": null, "kdcbps": null, "kdcpum": "33.27.03", "kdebps": null, "kdepum": "33.27.03.2011", "kdpbps": null, "kdpkab": "33.27", "kdppum": "33", "luaswh": 925.73183488100005, "tipadm": 1, "wadmkc": "Belik", "wadmkd": "Sikasur", "wadmkk": "Pemalang", "wadmpr": "Jawa Tengah", "wiadkc": null, "wiadkk": null, "wiadpr": null, "wiadkd": null, "uupp": "Hasil Kesepakatan Teknis Batas Wilayah Administrasi Desa/Kelurahan Tahun 2021", "shape_leng": 0.18771842776, "shape_area": 0.00075775591, "y_t": "Y" }, "geometry": { "type": "MultiPolygon", "coordinates": [ [ [ [ 109.319814965638329, -7.121246241627546, 0.0 ], [ 109.319721593532563, -7.121179964316696, 0.0 ], [ 109.319276691723985, -7.120864164377167, 0.0 ], [ 109.31906838731436, -7.120716305863652, 0.0 ], [ 109.319019390599578, -7.120681527249872, 0.0 ], [ 109.318989232364231, -7.120639879974817, 0.0 ], [ 109.318951161322445, -7.12056944819858, 0.0 ], [ 109.31893212519293, -7.120491401599907, 0.0 ], [ 109.318850272491602, -7.120308659519594, 0.0 ], [ 109.318800778922366, -7.120224902456698, 0.0 ], [ 109.318715119060073, -7.120087845402281, 0.0 ], [ 109.318652301029488, -7.120063098502897, 0.0 ], [ 109.318545700884215, -7.120040255884874, 0.0 ], [ 109.31849811224771, -7.120036448895974, 0.0 ], [ 109.318446715476966, -7.119988859694899, 0.0 ], [ 109.318425775872811, -7.119956498708575, 0.0 ], [ 109.318399126600696, -7.119899392205411, 0.0 ], [ 109.318423872429548, -7.119840381065785, 0.0 ], [ 109.31847146176824, -7.119787081666573, 0.0 ], [ 109.318553315627923, -7.119743299740264, 0.0 ], [ 109.318608518612848, -7.119710938792082, 0.0 ], [ 109.318658011642242, -7.119663349147345, 0.0 ], [ 109.318656107797551, -7.119623374259561, 0.0 ], [ 109.318608518502003, -7.119592917456089, 0.0 ], [ 109.318560929581452, -7.119581496115984, 0.0 ], [ 109.318498111953033, -7.119564363581276, 0.0 ], [ 109.318435294327969, -7.119547231943216, 0.0 ], [ 109.318387704445513, -7.119512967484638, 0.0 ], [ 109.318362958058913, -7.119478702862523, 0.0 ], [ 109.318340115713283, -7.119457764197819, 0.0 ], [ 109.31828300835798, -7.119457763694868, 0.0 ], [ 109.318231612113607, -7.119463475051646, 0.0 ], [ 109.318113590884536, -7.119452053545729, 0.0 ], [ 109.318096459026663, -7.119421596198379, 0.0 ], [ 109.318130722861781, -7.119410174873508, 0.0 ], [ 109.318271587227287, -7.119408270848567, 0.0 ], [ 109.31831156186513, -7.11940065710462, 0.0 ], [ 109.318362958338696, -7.119374006908458, 0.0 ], [ 109.318412451433289, -7.119354971387907, 0.0 ], [ 109.318452426414467, -7.119360682095021, 0.0 ], [ 109.318471462288869, -7.119387331484575, 0.0 ], [ 109.318532376273481, -7.119427306529701, 0.0 ], [ 109.318570447277409, -7.119436824274146, 0.0 ], [ 109.318612326257892, -7.11943872792358, 0.0 ], [ 109.318656107745483, -7.119444438885068, 0.0 ], [ 109.318703696901935, -7.119440631478255, 0.0 ], [ 109.31878555110211, -7.119427306963928, 0.0 ], [ 109.31885407883334, -7.119421596304164, 0.0 ], [ 109.31896254719743, -7.11941065068919, 0.0 ], [ 109.31909579719013, -7.119399943369785, 0.0 ], [ 109.319120781420509, -7.119388046093206, 0.0 ], [ 109.31915052412495, -7.119379717846471, 0.0 ], [ 109.319175509003685, -7.119377338304503, 0.0 ], [ 109.319231748424443, -7.119386989814132, 0.0 ], [ 109.31928314461112, -7.11936985814242, 0.0 ], [ 109.319429719326308, -7.119385086718239, 0.0 ], [ 109.319505862180449, -7.119381278954336, 0.0 ], [ 109.319589619521423, -7.119375568339422, 0.0 ], [ 109.319694315271988, -7.119339400310878, 0.0 ], [ 109.319753326560487, -7.119324172477377, 0.0 ], [ 109.319795323315873, -7.11933476050109, 0.0 ], [ 109.319823876828139, -7.119306206988824, 0.0 ], [ 109.319828159726967, -7.119274798450647, 0.0 ], [ 109.319786757779866, -7.11922340187283, 0.0 ], [ 109.319758204350592, -7.119191993449647, 0.0 ], [ 109.319739644166589, -7.119152017735814, 0.0 ], [ 109.319711090369935, -7.119096338444251, 0.0 ], [ 109.319679682152071, -7.119039231885836, 0.0 ], [ 109.31964684556084, -7.118993545765704, 0.0 ], [ 109.319653983828914, -7.118969275505492, 0.0 ], [ 109.319699669231568, -7.118937866318959, 0.0 ], [ 109.31973393384834, -7.118915023754937, 0.0 ], [ 109.31976050399777, -7.118888453210047, 0.0 ], [ 109.319773829037899, -7.118850381813957, 0.0 ], [ 109.319766215282584, -7.118823731443626, 0.0 ], [ 109.319749082961437, -7.118785660667754, 0.0 ], [ 109.319737661148395, -7.118749492293944, 0.0 ], [ 109.319737661204385, -7.118711421339469, 0.0 ], [ 109.319743371800428, -7.118680963791689, 0.0 ], [ 109.319770021603006, -7.118658121599537, 0.0 ], [ 109.319827129344787, -7.1186333745095, 0.0 ], [ 109.319895657764221, -7.118610532459741, 0.0 ], [ 109.319933729310492, -7.118612435712464, 0.0 ], [ 109.319969896766509, -7.118644796773538, 0.0 ], [ 109.320017485980884, -7.118658121322881, 0.0 ], [ 109.320058280122794, -7.118635366811645, 0.0 ], [ 109.320116471820995, -7.118602917737803, 0.0 ], [ 109.320160253346785, -7.118576267682045, 0.0 ], [ 109.320177011430417, -7.118576268019979, 0.0 ], [ 109.320244010917975, -7.118578171287481, 0.0 ], [ 109.320285888869762, -7.118568653656382, 0.0 ], [ 109.320320153121997, -7.118543906762511, 0.0 ], [ 109.320350610788239, -7.118507739406311, 0.0 ], [ 109.32039248941328, -7.118469667636191, 0.0 ], [ 109.320403910779703, -7.118443017640004, 0.0 ], [ 109.320415331416029, -7.118401139795822, 0.0 ], [ 109.32042104218516, -7.118361164486714, 0.0 ], [ 109.320449595687649, -7.118344032021753, 0.0 ], [ 109.320497184930218, -7.118324996555373, 0.0 ], [ 109.320548581437379, -7.118326900190766, 0.0 ], [ 109.32063031581697, -7.118366875483559, 0.0 ], [ 109.320677904910724, -7.118374013338723, 0.0 ], [ 109.320723114703412, -7.118357357238494, 0.0 ], [ 109.32076832521949, -7.118328803503914, 0.0 ], [ 109.320799257476608, -7.118283593892215, 0.0 ], [ 109.320839709114694, -7.118238384459232, 0.0 ], [ 109.320889677572325, -7.118226487297591, 0.0 ], [ 109.320975337878735, -7.118233625819414, 0.0 ], [ 109.321060998615906, -7.118221727933019, 0.0 ], [ 109.321130002645816, -7.118190795595467, 0.0 ], [ 109.321179971724632, -7.1181503442603, 0.0 ], [ 109.321239458577736, -7.118100375338997, 0.0 ], [ 109.321263252542622, -7.118057544993007, 0.0 ], [ 109.321268011825339, -7.117845772963051, 0.0 ], [ 109.321453609811897, -7.117786287074182, 0.0 ], [ 109.321524993099445, -7.117736317844276, 0.0 ], [ 109.321667761169522, -7.117693487643749, 0.0 ], [ 109.321860497038415, -7.117667313350807, 0.0 ], [ 109.321884266510153, -7.117646286809361, 0.0 ], [ 109.321922363702356, -7.117612585926167, 0.0 ], [ 109.321915225237092, -7.117581653126649, 0.0 ], [ 109.321893810324923, -7.117555478976044, 0.0 ], [ 109.321870015663933, -7.11752454636337, 0.0 ], [ 109.321848600233068, -7.11747933671154, 0.0 ], [ 109.321843841691816, -7.117422229237491, 0.0 ], [ 109.321822426317283, -7.117329429936376, 0.0 ], [ 109.321815287311949, -7.117258046249788, 0.0 ], [ 109.32180339083493, -7.117189042382165, 0.0 ], [ 109.321791493362014, -7.117124796481562, 0.0 ], [ 109.321767698915266, -7.117084346121715, 0.0 ], [ 109.321720108888599, -7.117060550985002, 0.0 ], [ 109.321667761589822, -7.117029617914511, 0.0 ], [ 109.321615412778499, -7.116984408211692, 0.0 ], [ 109.321570203111548, -7.116958234572678, 0.0 ], [ 109.321522613598063, -7.116910645053167, 0.0 ], [ 109.321486921988765, -7.116860676292106, 0.0 ], [ 109.321429577072365, -7.116812532370659, 0.0 ], [ 109.321408757047948, -7.116770891090539, 0.0 ], [ 109.321405782549959, -7.116723302416801, 0.0 ], [ 109.32140875694239, -7.116660841118801, 0.0 ], [ 109.321441473957464, -7.116628124172848, 0.0 ], [ 109.321492037767143, -7.116610277529617, 0.0 ], [ 109.321533678274022, -7.116616226347389, 0.0 ], [ 109.321625882802266, -7.116616226140877, 0.0 ], [ 109.321679420486817, -7.116610277950315, 0.0 ], [ 109.321738907103509, -7.116592431983747, 0.0 ], [ 109.321866803332398, -7.116518073852887, 0.0 ], [ 109.321929263659626, -7.116503201745786, 0.0 ], [ 109.322006596800748, -7.116437766584511, 0.0 ], [ 109.322095826059751, -7.116402075227427, 0.0 ], [ 109.322143415659923, -7.116405048989748, 0.0 ], [ 109.322229670508136, -7.116378280450533, 0.0 ], [ 109.322309977228542, -7.116357459951701, 0.0 ], [ 109.322381361742998, -7.116321768051421, 0.0 ], [ 109.322506283000337, -7.116280127836319, 0.0 ], [ 109.322530078018588, -7.116247410102631, 0.0 ], [ 109.322565769569962, -7.116217666939235, 0.0 ], [ 109.32262228155264, -7.11619982091014, 0.0 ], [ 109.322842381751514, -7.116241461781158, 0.0 ], [ 109.322900265775274, -7.116244000600545, 0.0 ], [ 109.322929547778074, -7.116245284922513, 0.0 ], [ 109.322949977885798, -7.116246180996256, 0.0 ], [ 109.322966040094968, -7.116240231593395, 0.0 ], [ 109.32305070871962, -7.116225241755387, 0.0 ], [ 109.323111622791259, -7.116238566300694, 0.0 ], [ 109.323153501826994, -7.116215723853827, 0.0 ], [ 109.323178248378269, -7.116181459699646, 0.0 ], [ 109.323182054820734, -7.116139581256448, 0.0 ], [ 109.323174440603054, -7.116095798761023, 0.0 ], [ 109.323166826628324, -7.1160482095259, 0.0 ], [ 109.323149694206279, -7.116000620170496, 0.0 ], [ 109.323124947704343, -7.115977777790533, 0.0 ], [ 109.323090684067608, -7.115941609892673, 0.0 ], [ 109.323071648296605, -7.115895924245876, 0.0 ], [ 109.323052611969274, -7.115873080848644, 0.0 ], [ 109.323027866285202, -7.115823588572937, 0.0 ], [ 109.323018347732159, -7.115775998769323, 0.0 ], [ 109.323008830741003, -7.11573221752019, 0.0 ], [ 109.323022155471165, -7.115699856052743, 0.0 ], [ 109.323058323546263, -7.115667495956416, 0.0 ], [ 109.323104960572607, -7.115643106447976, 0.0 ], [ 109.323132086443195, -7.115621690746138, 0.0 ], [ 109.323157784664545, -7.115578860796859, 0.0 ], [ 109.323173488933548, -7.115518898671382, 0.0 ], [ 109.323187765429964, -7.115473212528173, 0.0 ], [ 109.323190621375488, -7.115441804149839, 0.0 ], [ 109.323174916724554, -7.115447514341895, 0.0 ], [ 109.32314779117246, -7.115444659139257, 0.0 ], [ 109.323129231015514, -7.115437520956675, 0.0 ], [ 109.323117809284383, -7.11541896128233, 0.0 ], [ 109.323104960159071, -7.115380414213689, 0.0 ], [ 109.323093539090337, -7.11536042588375, 0.0 ], [ 109.323077834758124, -7.115357571359596, 0.0 ], [ 109.323045831227432, -7.115365363685839, 0.0 ], [ 109.323001573319345, -7.115356797791094, 0.0 ], [ 109.322970163747698, -7.115335382538149, 0.0 ], [ 109.322958742845231, -7.115311111850019, 0.0 ], [ 109.322961597836866, -7.115096960038613, 0.0 ], [ 109.322929444024624, -7.114963888857801, 0.0 ], [ 109.322809510446177, -7.114878763912202, 0.0 ], [ 109.322673881144055, -7.114807380383354, 0.0 ], [ 109.322495421512656, -7.114643197713121, 0.0 ], [ 109.322309824334468, -7.114479014457061, 0.0 ], [ 109.322138502990185, -7.114421907412577, 0.0 ], [ 109.321874382234682, -7.11435052371894, 0.0 ], [ 109.321624539524066, -7.114357661994234, 0.0 ], [ 109.321403249479658, -7.114450461208094, 0.0 ], [ 109.321167682493126, -7.114528983445837, 0.0 ], [ 109.320946393200472, -7.114578951641931, 0.0 ], [ 109.320746517811131, -7.114650335910198, 0.0 ], [ 109.320589473546818, -7.114778826385987, 0.0 ], [ 109.320425291237427, -7.114878763883894, 0.0 ], [ 109.320346768820286, -7.115014393032254, 0.0 ], [ 109.320361045847108, -7.115164299098808, 0.0 ], [ 109.320283950632302, -7.115316426236632, 0.0 ], [ 109.320194721464759, -7.115405655691688, 0.0 ], [ 109.320010313196519, -7.115477039593031, 0.0 ], [ 109.319766418482345, -7.115572217956696, 0.0 ], [ 109.319546317564743, -7.11560791032241, 0.0 ], [ 109.319350012059601, -7.115697139664348, 0.0 ], [ 109.319236988267676, -7.115810164537038, 0.0 ], [ 109.31908908600974, -7.11589810646376, 0.0 ], [ 109.319016887548855, -7.115941034882951, 0.0 ], [ 109.318883987590425, -7.115993495281202, 0.0 ], [ 109.318582636462736, -7.116101648029939, 0.0 ], [ 109.318487457756419, -7.116274159561499, 0.0 ], [ 109.318338741931314, -7.116422875720957, 0.0 ], [ 109.318160282299914, -7.116500208345258, 0.0 ], [ 109.317904489593388, -7.116607283295252, 0.0 ], [ 109.317726029905657, -7.116690564525129, 0.0 ], [ 109.317462911527002, -7.116853164588235, 0.0 ], [ 109.316997716952415, -7.117136713902312, 0.0 ], [ 109.316797842327333, -7.117108159946838, 0.0 ], [ 109.316605832784319, -7.11722499998956, 0.0 ], [ 109.316169664073357, -7.117043914832891, 0.0 ], [ 109.316041174071245, -7.116965392270231, 0.0 ], [ 109.315948374923494, -7.116786933264109, 0.0 ], [ 109.315903759371395, -7.116595981580531, 0.0 ], [ 109.315853790643189, -7.116524597702892, 0.0 ], [ 109.315832376365222, -7.116367553343764, 0.0 ], [ 109.315832376216179, -7.116274754207154, 0.0 ], [ 109.315760992423407, -7.116224785497536, 0.0 ], [ 109.315646778413793, -7.116142694375981, 0.0 ], [ 109.315514718216377, -7.116142693953407, 0.0 ], [ 109.3154290574426, -7.116156970750467, 0.0 ], [ 109.315350535434675, -7.116131986473761, 0.0 ], [ 109.315279151384686, -7.116085586624024, 0.0 ], [ 109.315221449642991, -7.116023839671755, 0.0 ], [ 109.315224423942198, -7.115964353455638, 0.0 ], [ 109.315304730759578, -7.115776970536956, 0.0 ], [ 109.315353712923013, -7.11564302907334, 0.0 ], [ 109.315396155689086, -7.115504383607117, 0.0 ], [ 109.315469722812168, -7.115371397813362, 0.0 ], [ 109.315546119615362, -7.115252558720726, 0.0 ], [ 109.315571584354984, -7.115195968224555, 0.0 ], [ 109.315617137947527, -7.115128398650597, 0.0 ], [ 109.315636173490986, -7.115068912078584, 0.0 ], [ 109.315679004136882, -7.11493804146113, 0.0 ], [ 109.315669485774208, -7.11488093396332, 0.0 ], [ 109.315630832691909, -7.11484722180694, 0.0 ], [ 109.315281732969595, -7.114915932050053, 0.0 ], [ 109.314972403495574, -7.115023007725995, 0.0 ], [ 109.314579792355346, -7.115011110536898, 0.0 ], [ 109.314306154091867, -7.11491593266021, 0.0 ], [ 109.314056310712942, -7.114880240653179, 0.0 ], [ 109.313675597195697, -7.114868342653722, 0.0 ], [ 109.313452778364251, -7.114877778408982, 0.0 ], [ 109.313446891267233, -7.114707571153929, 0.0 ], [ 109.313432019221921, -7.114532085848737, 0.0 ], [ 109.313404506699726, -7.114350404064965, 0.0 ], [ 109.313406886191501, -7.114236189359985, 0.0 ], [ 109.313392609160758, -7.114148149621997, 0.0 ], [ 109.313392610002779, -7.114100560169959, 0.0 ], [ 109.313418783532427, -7.114024417981057, 0.0 ], [ 109.313418783656914, -7.113983966356159, 0.0 ], [ 109.313389040687582, -7.113817404782992, 0.0 ], [ 109.313394988677089, -7.113692482764861, 0.0 ], [ 109.313686969028083, -7.113062024397834, 0.0 ], [ 109.313858289917107, -7.112862149641273, 0.0 ], [ 109.313997488046425, -7.112672983041136, 0.0 ], [ 109.314086718465546, -7.112555199981102, 0.0 ], [ 109.314086717997327, -7.112476677481652, 0.0 ], [ 109.314111702277728, -7.11242670865488, 0.0 ], [ 109.314118841083371, -7.112358894479371, 0.0 ], [ 109.313844013038761, -7.112280371536542, 0.0 ], [ 109.31372266058554, -7.112283940781083, 0.0 ], [ 109.31361558496269, -7.112408862622317, 0.0 ], [ 109.31356204659744, -7.112476677804239, 0.0 ], [ 109.313498634239068, -7.112509989449336, 0.0 ], [ 109.313351107650249, -7.112514749051002, 0.0 ], [ 109.313155991584551, -7.112509990263618, 0.0 ], [ 109.312964445216835, -7.112546276519481, 0.0 ], [ 109.312913881847351, -7.112629558089282, 0.0 ], [ 109.312860343838963, -7.112620634717189, 0.0 ], [ 109.312774088643664, -7.112576019643541, 0.0 ], [ 109.312714601555513, -7.112534379277179, 0.0 ], [ 109.312628346426038, -7.112552225153763, 0.0 ], [ 109.312571833927223, -7.112608737581468, 0.0 ], [ 109.312461784325762, -7.112656326584784, 0.0 ], [ 109.312405271795626, -7.11271283898401, 0.0 ], [ 109.312307119387469, -7.112772325477067, 0.0 ], [ 109.31222978694251, -7.112724736329596, 0.0 ], [ 109.312158402660202, -7.112709864147973, 0.0 ], [ 109.312030506753388, -7.1127098645714, 0.0 ], [ 109.311819330237427, -7.112721761871683, 0.0 ], [ 109.31176346554696, -7.112740180404501, 0.0 ], [ 109.311535518484845, -7.11275817590365, 0.0 ], [ 109.311397550531353, -7.11280616466496, 0.0 ], [ 109.311175601191735, -7.112776171983739, 0.0 ], [ 109.310965649511161, -7.112722184576569, 0.0 ], [ 109.310929658328348, -7.112638203338861, 0.0 ], [ 109.310905663652193, -7.112482239317274, 0.0 ], [ 109.310791689990936, -7.11240425790271, 0.0 ], [ 109.310587736950197, -7.112416255157825, 0.0 ], [ 109.310323798249044, -7.112452246359624, 0.0 ], [ 109.310215822770715, -7.11250023568158, 0.0 ], [ 109.310125843350534, -7.112638203291169, 0.0 ], [ 109.310023867353493, -7.112692191260862, 0.0 ], [ 109.309843908493406, -7.112836158071218, 0.0 ], [ 109.309771925188386, -7.112956130599684, 0.0 ], [ 109.309724930918037, -7.113105372206405, 0.0 ], [ 109.309683290341184, -7.113224345089293, 0.0 ], [ 109.309635700969295, -7.113295729485856, 0.0 ], [ 109.30961785519537, -7.11335521547494, 0.0 ], [ 109.309469139265673, -7.113367112666424, 0.0 ], [ 109.309350166172408, -7.113349266884882, 0.0 ], [ 109.30922524415638, -7.113313575611016, 0.0 ], [ 109.309106271650251, -7.113343318224281, 0.0 ], [ 109.309034887096118, -7.113379010660594, 0.0 ], [ 109.308898068749954, -7.113349267140052, 0.0 ], [ 109.308707711855448, -7.113283831569674, 0.0 ], [ 109.308523303238758, -7.113212448083345, 0.0 ], [ 109.308398381958284, -7.113212448389163, 0.0 ], [ 109.308332946766654, -7.113313575512962, 0.0 ], [ 109.308291305660987, -7.113450394519418, 0.0 ], [ 109.308249665144331, -7.113616956512033, 0.0 ], [ 109.308193589429607, -7.113811864187937, 0.0 ], [ 109.308176933119455, -7.113885627329637, 0.0 ], [ 109.308167415554067, -7.113954631488753, 0.0 ], [ 109.308169794825972, -7.114154506147088, 0.0 ], [ 109.308088892810929, -7.114299653157218, 0.0 ], [ 109.308038924297534, -7.114359140093825, 0.0 ], [ 109.307981388757071, -7.114408333000597, 0.0 ], [ 109.307843610510133, -7.114169576333779, 0.0 ], [ 109.307742482723654, -7.113991116830505, 0.0 ], [ 109.307593766783441, -7.113830503329154, 0.0 ], [ 109.307439102082299, -7.113652043427919, 0.0 ], [ 109.307307372278558, -7.113544662949266, 0.0 ], [ 109.307103598267531, -7.113323677652716, 0.0 ], [ 109.306828769755953, -7.112945343791353, 0.0 ], [ 109.306546804295181, -7.112549163665847, 0.0 ], [ 109.306464712421075, -7.112399257085542, 0.0 ], [ 109.306427831102496, -7.11229313384564, 0.0 ], [ 109.306402846276512, -7.112032582185293, 0.0 ], [ 109.306335032331845, -7.111914799119234, 0.0 ], [ 109.306103034192063, -7.111797016012872, 0.0 ], [ 109.305738977195745, -7.111536464785502, 0.0 ], [ 109.305606916549436, -7.111400835435518, 0.0 ], [ 109.305546240298554, -7.111268775697113, 0.0 ], [ 109.305563721216629, -7.111131869606652, 0.0 ], [ 109.305662353000059, -7.111182133999932, 0.0 ], [ 109.305736116000048, -7.111217826999962, 0.0 ], [ 109.305841636000082, -7.11128943499989, 0.0 ], [ 109.306024031000163, -7.111339178999856, 0.0 ], [ 109.306166798000163, -7.111343937999891, 0.0 ], [ 109.306238183000119, -7.111286830999973, 0.0 ], [ 109.306356417000131, -7.111086739999905, 0.0 ], [ 109.306368576000125, -7.111075780999897, 0.0 ], [ 109.306463848000021, -7.110921439999913, 0.0 ], [ 109.30651857700002, -7.110845296999912, 0.0 ], [ 109.306568545000061, -7.110785810999971, 0.0 ], [ 109.306678, -7.110690632999933, 0.0 ], [ 109.306780317, -7.110609729999965, 0.0 ], [ 109.30688977200009, -7.110519310999962, 0.0 ], [ 109.306951638000044, -7.110471720999954, 0.0 ], [ 109.307020642999987, -7.110438409999915, 0.0 ], [ 109.307127718000061, -7.110395578999942, 0.0 ], [ 109.307475120000049, -7.110190945999875, 0.0 ], [ 109.307634543000177, -7.110095766999905, 0.0 ], [ 109.307705927000029, -7.110060074999978, 0.0 ], [ 109.307936735000112, -7.109962516999815, 0.0 ], [ 109.308041230000185, -7.109912204999887, 0.0 ], [ 109.308093567000128, -7.109877594999887, 0.0 ], [ 109.308218489000183, -7.109764569999868, 0.0 ], [ 109.308322590000159, -7.109705083999927, 0.0 ], [ 109.308423717000096, -7.109666417999904, 0.0 ], [ 109.308515922000197, -7.109657494999965, 0.0 ], [ 109.308649766000087, -7.109663442999931, 0.0 ], [ 109.30879550800006, -7.109684263999952, 0.0 ], [ 109.308988839000165, -7.109722929999975, 0.0 ], [ 109.309110787000122, -7.109770518999937, 0.0 ], [ 109.30923570900012, -7.109788364999872, 0.0 ], [ 109.309402000000148, -7.109695000999977, 0.0 ], [ 109.3095, -7.109634, 0.0 ], [ 109.309610000000134, -7.109594, 0.0 ], [ 109.309812000000136, -7.109721000999969, 0.0 ], [ 109.310016766, -7.109801452999875, 0.0 ], [ 109.310224969000103, -7.10983119499997, 0.0 ], [ 109.310349891000158, -7.109795503999919, 0.0 ], [ 109.310474812000052, -7.109736016999875, 0.0 ], [ 109.310578914000189, -7.109670580999818, 0.0 ], [ 109.310750001000201, -7.109472, 0.0 ], [ 109.311005, -7.109119, 0.0 ], [ 109.311335999, -7.108589000999928, 0.0 ], [ 109.31135791000014, -7.10856928499993, 0.0 ], [ 109.311387336000109, -7.108505240999932, 0.0 ], [ 109.311644318000049, -7.10811500899996, 0.0 ], [ 109.311910817000125, -7.10784850999994, 0.0 ], [ 109.31221538900013, -7.107677187999968, 0.0 ], [ 109.312700798000037, -7.10762008099988, 0.0 ], [ 109.313814386000161, -7.107800920999921, 0.0 ], [ 109.314242689000196, -7.107858026999963, 0.0 ], [ 109.314680510000073, -7.107791401999918, 0.0 ], [ 109.314918456000044, -7.107829473999971, 0.0 ], [ 109.315261098000121, -7.10797224199996, 0.0 ], [ 109.315641812000194, -7.108134044999872, 0.0 ], [ 109.315889276000064, -7.108143562999942, 0.0 ], [ 109.316203365000035, -7.108048383999972, 0.0 ], [ 109.316510000000108, -7.107753, 0.0 ], [ 109.316656001000183, -7.107702, 0.0 ], [ 109.316955275000055, -7.107648634999919, 0.0 ], [ 109.317202739000152, -7.107743813999889, 0.0 ], [ 109.317600999000035, -7.10795499999989, 0.0 ], [ 109.318224000000157, -7.107984999999871, 0.0 ], [ 109.318281341000045, -7.10798249599992, 0.0 ], [ 109.318461091000131, -7.108025635999979, 0.0 ], [ 109.31863955100016, -7.108037532999958, 0.0 ], [ 109.318948880999983, -7.108067275999929, 0.0 ], [ 109.319228467000073, -7.108037533999948, 0.0 ], [ 109.319670154000107, -7.107955738999863, 0.0 ], [ 109.319930408000118, -7.107918559999973, 0.0 ], [ 109.320204047000118, -7.107930457999885, 0.0 ], [ 109.320666781000057, -7.108048962999931, 0.0 ], [ 109.320689000000186, -7.108051, 0.0 ], [ 109.321638, -7.108238000999961, 0.0 ], [ 109.321935, -7.108197, 0.0 ], [ 109.322262000000137, -7.108127, 0.0 ], [ 109.322432000000163, -7.108014, 0.0 ], [ 109.322603000000129, -7.10777499999989, 0.0 ], [ 109.322944, -7.107365999999899, 0.0 ], [ 109.323058000000117, -7.107167998999955, 0.0 ], [ 109.323303677000069, -7.107039491999899, 0.0 ], [ 109.32354162300004, -7.107020456999919, 0.0 ], [ 109.323767000000146, -7.107072, 0.0 ], [ 109.324128999000152, -7.10711, 0.0 ], [ 109.324483999000051, -7.107054, 0.0 ], [ 109.324486385000057, -7.107052271999976, 0.0 ], [ 109.324594152000202, -7.107038159999945, 0.0 ], [ 109.324855893000063, -7.106847802999937, 0.0 ], [ 109.324974866000048, -7.106746675999943, 0.0 ], [ 109.325081941000121, -7.106627702999958, 0.0 ], [ 109.325087890000191, -7.106532523999874, 0.0 ], [ 109.325049396, -7.106413541999871, 0.0 ], [ 109.325050342999987, -7.106411759999901, 0.0 ], [ 109.325046249000195, -7.106342166999923, 0.0 ], [ 109.325016507000043, -7.106187501999841, 0.0 ], [ 109.325070044000142, -7.106009042999972, 0.0 ], [ 109.325159274000043, -7.105777044999968, 0.0 ], [ 109.325325836000161, -7.10565212399996, 0.0 ], [ 109.325504295000087, -7.10558073999988, 0.0 ], [ 109.325712499000076, -7.105598585999871, 0.0 ], [ 109.325864781000064, -7.105667543999971, 0.0 ], [ 109.325911, -7.105682, 0.0 ], [ 109.326118579000081, -7.105778377999911, 0.0 ], [ 109.326292279000086, -7.105909248999978, 0.0 ], [ 109.326373776000196, -7.106019298999968, 0.0 ], [ 109.326534, -7.106437000999961, 0.0 ], [ 109.326618001000043, -7.106764, 0.0 ], [ 109.326958, -7.107248, 0.0 ], [ 109.327190613000141, -7.107446912999933, 0.0 ], [ 109.327306265000118, -7.107494030999931, 0.0 ], [ 109.327662000000203, -7.107516, 0.0 ], [ 109.328058405000036, -7.107418768999935, 0.0 ], [ 109.328279658000099, -7.107263412999941, 0.0 ], [ 109.328452169000116, -7.107084954999948, 0.0 ], [ 109.328541399000187, -7.106995724999933, 0.0 ], [ 109.328696064000098, -7.106918391999898, 0.0 ], [ 109.328939958000035, -7.106858904999967, 0.0 ], [ 109.32922549400007, -7.106847007999875, 0.0 ], [ 109.329439645000093, -7.106876750999959, 0.0 ], [ 109.329612156000053, -7.106971928999883, 0.0 ], [ 109.329714400000171, -7.107009109999979, 0.0 ], [ 109.329804364000154, -7.107044251999923, 0.0 ], [ 109.329901922000033, -7.107068046999927, 0.0 ], [ 109.33014224700014, -7.107087081999907, 0.0 ], [ 109.330408747000149, -7.107089461999863, 0.0 ], [ 109.330587207000178, -7.10712515299997, 0.0 ], [ 109.33074187200009, -7.107182260999878, 0.0 ], [ 109.33088226000018, -7.107191778999891, 0.0 ], [ 109.331072617000189, -7.107108496999899, 0.0 ], [ 109.331291350000072, -7.106925043999922, 0.0 ], [ 109.331337497000106, -7.106894240999964, 0.0 ], [ 109.331564241000194, -7.106734907999908, 0.0 ], [ 109.331624651000027, -7.106684952999956, 0.0 ], [ 109.331826906000174, -7.106523148999884, 0.0 ], [ 109.33203154000006, -7.106416073999924, 0.0 ], [ 109.33220524, -7.106418452999947, 0.0 ], [ 109.332321834000084, -7.106449386999941, 0.0 ], [ 109.332602328, -7.106584280999868, 0.0 ], [ 109.332662143000107, -7.106605883999976, 0.0 ], [ 109.332667101000141, -7.106607674999964, 0.0 ], [ 109.33284061, -7.10670265199991, 0.0 ], [ 109.332864880000102, -7.106716137999967, 0.0 ], [ 109.333121861000109, -7.106837490999965, 0.0 ], [ 109.333471642000177, -7.10685176699991, 0.0 ], [ 109.333814285000017, -7.106830351999918, 0.0 ], [ 109.334206895000193, -7.10670186099992, 0.0 ], [ 109.334315801000116, -7.106685923999976, 0.0 ], [ 109.334518076000109, -7.106713506999938, 0.0 ], [ 109.33480221700006, -7.106814087999965, 0.0 ], [ 109.335136, -7.107049, 0.0 ], [ 109.335548773000198, -7.107577314999901, 0.0 ], [ 109.335928670000101, -7.107995341999924, 0.0 ], [ 109.336085715000195, -7.10820949299989, 0.0 ], [ 109.336285589000056, -7.108373676999975, 0.0 ], [ 109.336621094000179, -7.10858068999994, 0.0 ], [ 109.336799554000038, -7.108623519999981, 0.0 ], [ 109.337085088000038, -7.108623519999981, 0.0 ], [ 109.337406316000113, -7.108495028999869, 0.0 ], [ 109.338220092000142, -7.108252323999977, 0.0 ], [ 109.338812577000056, -7.108109556999977, 0.0 ], [ 109.339113252000175, -7.108017040999869, 0.0 ], [ 109.339238641000122, -7.108004747999928, 0.0 ], [ 109.339329466000095, -7.108020317999944, 0.0 ], [ 109.339433617000111, -7.108038171999908, 0.0 ], [ 109.339557023, -7.108070365999936, 0.0 ], [ 109.339645339000015, -7.108121146999963, 0.0 ], [ 109.339919026000018, -7.108352260999879, 0.0 ], [ 109.340325914000118, -7.108659211999964, 0.0 ], [ 109.340595090000193, -7.108756114999892, 0.0 ], [ 109.340728470000045, -7.108783637999977, 0.0 ], [ 109.341677875000187, -7.108940681999911, 0.0 ], [ 109.342620141000168, -7.109197663999964, 0.0 ], [ 109.342969921000133, -7.109361846999946, 0.0 ], [ 109.343319703000134, -7.109547443999929, 0.0 ], [ 109.343518317000019, -7.109715025999947, 0.0 ], [ 109.343575086000044, -7.109807030999889, 0.0 ], [ 109.34390505000016, -7.110625339999956, 0.0 ], [ 109.344119202000115, -7.111039366999933, 0.0 ], [ 109.344290523000154, -7.111260656999946, 0.0 ], [ 109.344535528000108, -7.111496060999968, 0.0 ], [ 109.344690273000197, -7.1116104379999, 0.0 ], [ 109.345204236000143, -7.112088708999977, 0.0 ], [ 109.345546878000107, -7.112524150999946, 0.0 ], [ 109.345853829000191, -7.112773993999895, 0.0 ], [ 109.346004583000024, -7.112857745999975, 0.0 ], [ 109.346324, -7.11293, 0.0 ], [ 109.345557299000177, -7.113073302999965, 0.0 ], [ 109.345147129000168, -7.113038113999892, 0.0 ], [ 109.344775933000165, -7.112938176999819, 0.0 ], [ 109.344557014000088, -7.112872826999933, 0.0 ], [ 109.344371009000042, -7.112835548999954, 0.0 ], [ 109.343590961000189, -7.112595533999979, 0.0 ], [ 109.343288870000151, -7.11249963299997, 0.0 ], [ 109.343074063000017, -7.112457555999924, 0.0 ], [ 109.34273726300006, -7.112481571999979, 0.0 ], [ 109.342413128000146, -7.112609810999913, 0.0 ], [ 109.342184700000075, -7.112795408999887, 0.0 ], [ 109.341842057000065, -7.11308808299998, 0.0 ], [ 109.3414922770001, -7.113416447999953, 0.0 ], [ 109.341198209000083, -7.113648308999927, 0.0 ], [ 109.340722830000118, -7.113817134999977, 0.0 ], [ 109.340554108000163, -7.11382557099995, 0.0 ], [ 109.340352215000053, -7.113791921999848, 0.0 ], [ 109.339886140000146, -7.113623460999918, 0.0 ], [ 109.339500668000028, -7.113452139999879, 0.0 ], [ 109.339343623000104, -7.113423586999943, 0.0 ], [ 109.339186579000113, -7.113430724999887, 0.0 ], [ 109.338851074000104, -7.113616322999974, 0.0 ], [ 109.3381872060001, -7.113973241999929, 0.0 ], [ 109.337998369, -7.114064865999978, 0.0 ], [ 109.337734725000018, -7.114152747999924, 0.0 ], [ 109.337472985000034, -7.114206285999956, 0.0 ], [ 109.337276679000183, -7.114283617999945, 0.0 ], [ 109.337127963000114, -7.114396642999964, 0.0 ], [ 109.336932455000124, -7.114586224999925, 0.0 ], [ 109.336681007000095, -7.114729909999937, 0.0 ], [ 109.335924338000098, -7.115008307999972, 0.0 ], [ 109.335746547000042, -7.115070773999946, 0.0 ], [ 109.335531414000059, -7.115086794999968, 0.0 ], [ 109.335274745000049, -7.1150582759999, 0.0 ], [ 109.335003486000119, -7.115072552999948, 0.0 ], [ 109.334717951000187, -7.115165351999963, 0.0 ], [ 109.334510938000051, -7.115322396999886, 0.0 ], [ 109.334096911000131, -7.115779252999971, 0.0 ], [ 109.334011252000096, -7.115936297999895, 0.0 ], [ 109.333932729000082, -7.116228970999941, 0.0 ], [ 109.333818515000189, -7.116443122999897, 0.0 ], [ 109.333711440000116, -7.116642996999929, 0.0 ], [ 109.333633193000139, -7.116701681999928, 0.0 ], [ 109.333552823000048, -7.116782051999962, 0.0 ], [ 109.333487387000162, -7.116847486999973, 0.0 ], [ 109.333368414000176, -7.117067587999884, 0.0 ], [ 109.33328513400005, -7.117216303999953, 0.0 ], [ 109.333201852000059, -7.117335276999938, 0.0 ], [ 109.333100725000122, -7.117448301999957, 0.0 ], [ 109.332987701000036, -7.117632709999953, 0.0 ], [ 109.332938767000087, -7.11786984999992, 0.0 ], [ 109.33296944, -7.118436337999981, 0.0 ], [ 109.33286, -7.118836, 0.0 ], [ 109.332653000000107, -7.119403, 0.0 ], [ 109.332256000000143, -7.120109999999897, 0.0 ], [ 109.332094116000064, -7.120336892999944, 0.0 ], [ 109.331496351000112, -7.120946089999904, 0.0 ], [ 109.331468202000167, -7.120961124999894, 0.0 ], [ 109.33088594100002, -7.121416918999955, 0.0 ], [ 109.330483001000061, -7.121616000999893, 0.0 ], [ 109.330320893000192, -7.121628798999893, 0.0 ], [ 109.330278094000107, -7.121618387999945, 0.0 ], [ 109.33004293, -7.121419402999891, 0.0 ], [ 109.329937914000197, -7.121213746999956, 0.0 ], [ 109.329854001000115, -7.120968, 0.0 ], [ 109.329543, -7.119675, 0.0 ], [ 109.329447987000094, -7.119262699999979, 0.0 ], [ 109.329416384000012, -7.119186481999975, 0.0 ], [ 109.32930811500006, -7.119091424999908, 0.0 ], [ 109.329134000000124, -7.119184998999913, 0.0 ], [ 109.3289279990002, -7.119342, 0.0 ], [ 109.328709375000074, -7.119484006999812, 0.0 ], [ 109.328491722000081, -7.119573264999929, 0.0 ], [ 109.32848166600013, -7.119574817999933, 0.0 ], [ 109.328252361000068, -7.119669076999912, 0.0 ], [ 109.328102454000202, -7.119701198999906, 0.0 ], [ 109.327970395000193, -7.119704767999963, 0.0 ], [ 109.32778479600006, -7.119665507999969, 0.0 ], [ 109.327524245000063, -7.119565569999963, 0.0 ], [ 109.32731009400004, -7.119458494999833, 0.0 ], [ 109.326953175000085, -7.119269326999813, 0.0 ], [ 109.3265629, -7.119009217999974, 0.0 ], [ 109.326549855999986, -7.119005206999873, 0.0 ], [ 109.326407088999986, -7.118940960999907, 0.0 ], [ 109.326317859000085, -7.118940960999907, 0.0 ], [ 109.326178660000039, -7.119005206999873, 0.0 ], [ 109.325950495000029, -7.119186257999957, 0.0 ], [ 109.325873112000124, -7.119292382999959, 0.0 ], [ 109.325469797000096, -7.119746823999947, 0.0 ], [ 109.325188491000063, -7.119970322999905, 0.0 ], [ 109.325172401000145, -7.119976668999868, 0.0 ], [ 109.324897321000151, -7.120161624999923, 0.0 ], [ 109.324761691000106, -7.120243716999937, 0.0 ], [ 109.324640338000108, -7.120286546999978, 0.0 ], [ 109.32433695800006, -7.120290115999978, 0.0 ], [ 109.324090684000112, -7.120297254999969, 0.0 ], [ 109.323708305000139, -7.120323582999902, 0.0 ], [ 109.323690508000197, -7.12032738299996, 0.0 ], [ 109.323287615000197, -7.120386483999937, 0.0 ], [ 109.323112109000022, -7.120443920999833, 0.0 ], [ 109.322970532000113, -7.120480801999975, 0.0 ], [ 109.322906098000146, -7.120489179999936, 0.0 ], [ 109.322789693000175, -7.120458196999948, 0.0 ], [ 109.322652300000073, -7.12046500699995, 0.0 ], [ 109.322252550000087, -7.120511405999821, 0.0 ], [ 109.322152613000071, -7.120547097999918, 0.0 ], [ 109.322020552000026, -7.120675588999973, 0.0 ], [ 109.321820678000051, -7.120761248999884, 0.0 ], [ 109.321684311000013, -7.120815947999972, 0.0 ], [ 109.32150658900008, -7.120850478999898, 0.0 ], [ 109.321299575000182, -7.120850479999888, 0.0 ], [ 109.32109613200015, -7.12087189399989, 0.0 ], [ 109.320924810000179, -7.120932570999912, 0.0 ], [ 109.320692813000051, -7.12108961499996, 0.0 ], [ 109.320460815000047, -7.121157429999869, 0.0 ], [ 109.320253803000128, -7.121228813999949, 0.0 ], [ 109.319814965638329, -7.121246241627546, 0.0 ] ] ] ] } }
]
}
