{
"type": "FeatureCollection",
"name": "budidayakayu",
"crs": { "type": "name", "properties": { "name": "urn:ogc:def:crs:OGC:1.3:CRS84" } },
"features": [
{ "type": "Feature", "properties": { "NAMOBJ": "Ladang/Tegalan", "JNSSWH": 999, "FCODE": null, "AQDATE": null, "PUDATE": null, "REMARK": "Sawah", "KODLCO": null, "SRS_ID": null, "LCODE": "FA0060", "METADATA": null, "TNMSWH": 0, "SHAPE_Leng": 0.24627574283000001, "Name": null, "FolderPath": null, "SymbolID": 0, "AltMode": 0, "Base": 0.0, "Clamped": 0, "Extruded": 0, "Snippet": null, "PopupInfo": null, "Shape_Le_1": 357.65567295400001, "Shape_Area": 7788.9810583500002, "KELAS": "Tanaman Kayu Budidaya", "SUB_KELAS": "Tanaman Kayu Budidaya" }, "geometry": { "type": "MultiPolygon", "coordinates": [ [ [ [ 109.314089567238952, -7.114130997807204, 0.0 ], [ 109.314251222296122, -7.114321180233635, 0.0 ], [ 109.314403366552739, -7.114273634696644, 0.0 ], [ 109.314546004082544, -7.114492343468616, 0.0 ], [ 109.314368631367714, -7.114636870464119, 0.0 ], [ 109.314285530414296, -7.114701625810712, 0.0 ], [ 109.314056307987713, -7.114880243355978, 0.0 ], [ 109.313734497612714, -7.114870183862999, 0.0 ], [ 109.313708003964479, -7.114869355859109, 0.0 ], [ 109.313675597195981, -7.114868342653745, 0.0 ], [ 109.313575598472028, -7.114872577216467, 0.0 ], [ 109.313452778367903, -7.114877777504827, 0.0 ], [ 109.313446891267517, -7.114707571153966, 0.0 ], [ 109.313442197988635, -7.114652203770869, 0.0 ], [ 109.313432019222205, -7.114532085848756, 0.0 ], [ 109.313404506699996, -7.114350404065016, 0.0 ], [ 109.313406886191814, -7.114236189360051, 0.0 ], [ 109.313785275832544, -7.114150016541928, 0.0 ], [ 109.314089567238952, -7.114130997807204, 0.0 ] ] ] ] } },
{ "type": "Feature", "properties": { "NAMOBJ": null, "JNSSWH": 0, "FCODE": null, "AQDATE": "1899-12-30", "PUDATE": "1899-12-30", "REMARK": null, "KODLCO": null, "SRS_ID": null, "LCODE": null, "METADATA": null, "TNMSWH": 0, "SHAPE_Leng": 0.0, "Name": null, "FolderPath": null, "SymbolID": 0, "AltMode": 0, "Base": 0.0, "Clamped": 0, "Extruded": 0, "Snippet": null, "PopupInfo": null, "Shape_Le_1": 0.0, "Shape_Area": 0.0, "KELAS": "Tanaman Kayu Budidaya", "SUB_KELAS": "Tanaman Kayu Budidaya" }, "geometry": { "type": "MultiPolygon", "coordinates": [ [ [ [ 109.325291497028502, -7.105845439417944, 0.0 ], [ 109.325631821127303, -7.105874491530344, 0.0 ], [ 109.325608743403095, -7.106234162022814, 0.0 ], [ 109.325494793151165, -7.106330420949724, 0.0 ], [ 109.325607155654751, -7.106461448005664, 0.0 ], [ 109.325472865958645, -7.106550276740954, 0.0 ], [ 109.325296507865261, -7.106466785417918, 0.0 ], [ 109.325170055237791, -7.106387437545744, 0.0 ], [ 109.325064795135447, -7.106127436226113, 0.0 ], [ 109.325291497028502, -7.105845439417944, 0.0 ] ] ] ] } },
{ "type": "Feature", "properties": { "NAMOBJ": null, "JNSSWH": null, "FCODE": null, "AQDATE": null, "PUDATE": null, "REMARK": null, "KODLCO": null, "SRS_ID": null, "LCODE": null, "METADATA": null, "TNMSWH": null, "SHAPE_Leng": null, "Name": null, "FolderPath": null, "SymbolID": null, "AltMode": null, "Base": null, "Clamped": null, "Extruded": null, "Snippet": null, "PopupInfo": null, "Shape_Le_1": null, "Shape_Area": null, "KELAS": null, "SUB_KELAS": null }, "geometry": { "type": "MultiPolygon", "coordinates": [ [ [ [ 109.321460759449295, -7.112559494262541, 0.0 ], [ 109.321496334042507, -7.112496715568632, 0.0 ], [ 109.321584224213964, -7.1125009008149, 0.0 ], [ 109.321686762747348, -7.112528104915581, 0.0 ], [ 109.321852079974619, -7.112565772131924, 0.0 ], [ 109.321923229161044, -7.112565772131934, 0.0 ], [ 109.321973452116168, -7.112603439348272, 0.0 ], [ 109.322065527533894, -7.112655754926533, 0.0 ], [ 109.322130398850931, -7.112693422142875, 0.0 ], [ 109.322138769343454, -7.112791775429989, 0.0 ], [ 109.32208226851894, -7.112904777079003, 0.0 ], [ 109.321983915231826, -7.113128687753927, 0.0 ], [ 109.321898117683489, -7.113155891854611, 0.0 ], [ 109.321670021762301, -7.113114039392011, 0.0 ], [ 109.321345665177134, -7.113086835291321, 0.0 ], [ 109.321337294684625, -7.113086835291331, 0.0 ], [ 109.321142680733516, -7.113063816436894, 0.0 ], [ 109.320950159405555, -7.113030334466813, 0.0 ], [ 109.320950159405555, -7.113030334466813, 0.0 ], [ 109.320968993013722, -7.11299057462734, 0.0 ], [ 109.321081994662748, -7.112950814787864, 0.0 ], [ 109.321073624170225, -7.112885943470831, 0.0 ], [ 109.321100828270914, -7.112867109862663, 0.0 ], [ 109.321140588110396, -7.112860831993267, 0.0 ], [ 109.321236848774376, -7.112804331168764, 0.0 ], [ 109.321230570904987, -7.11280223854564, 0.0 ], [ 109.321234756151242, -7.112737367228599, 0.0 ], [ 109.321264052875065, -7.112668310665314, 0.0 ], [ 109.321295442222024, -7.112615995087055, 0.0 ], [ 109.321305905337667, -7.112601346725141, 0.0 ], [ 109.321326831568967, -7.112536475408112, 0.0 ], [ 109.321328924192102, -7.112530197538715, 0.0 ], [ 109.321389610262869, -7.112526012292465, 0.0 ], [ 109.321420999609828, -7.112557401639402, 0.0 ], [ 109.321460759449295, -7.112559494262541, 0.0 ] ] ] ] } }
]
}
