{
"type": "FeatureCollection",
"name": "perkebunan",
"crs": { "type": "name", "properties": { "name": "urn:ogc:def:crs:OGC:1.3:CRS84" } },
"features": [
{ "type": "Feature", "properties": { "id": 0 }, "geometry": { "type": "MultiPolygon", "coordinates": [ [ [ [ 109.325847410000051, -7.111979577999932 ], [ 109.325863887000082, -7.111971793999942 ], [ 109.325947548000045, -7.111932274999958 ], [ 109.326027434000082, -7.11196186899997 ], [ 109.326082244000077, -7.111954171999969 ], [ 109.326131472000043, -7.111929830999941 ], [ 109.326129977000051, -7.111961146999931 ], [ 109.32612806800006, -7.112001151999948 ], [ 109.326126055000088, -7.112043339999957 ], [ 109.326125705000038, -7.112050677999946 ], [ 109.326124115000084, -7.112083989999974 ], [ 109.326119321000078, -7.112184454999976 ], [ 109.326115412000036, -7.112266372999954 ], [ 109.326114240000038, -7.112290915999949 ], [ 109.326105147000078, -7.112481470999967 ], [ 109.326026338000077, -7.112455550999925 ], [ 109.325933757000087, -7.112425100999928 ], [ 109.325781195000047, -7.112321108999936 ], [ 109.325679262000051, -7.112114344999952 ], [ 109.325845823000066, -7.112052332999951 ], [ 109.325847410000051, -7.111979577999932 ] ] ] ] } },
{ "type": "Feature", "properties": { "id": 0 }, "geometry": { "type": "MultiPolygon", "coordinates": [ [ [ [ 109.325019740842379, -7.113678259304152 ], [ 109.324982815702128, -7.113643012579303 ], [ 109.32498869015626, -7.113602730608022 ], [ 109.324987823570211, -7.113496580868457 ], [ 109.325009729009992, -7.11349392320227 ], [ 109.325091669512176, -7.113483981813147 ], [ 109.325062535708526, -7.11333195205583 ], [ 109.325242484955709, -7.11315055911092 ], [ 109.325424409510561, -7.113463635074197 ], [ 109.325234342587123, -7.113492920609531 ], [ 109.325019740842379, -7.113678259304152 ] ] ] ] } },
{ "type": "Feature", "properties": { "id": 0 }, "geometry": { "type": "MultiPolygon", "coordinates": [ [ [ [ 109.331793642959838, -7.111524586370479 ], [ 109.331945540599918, -7.111469220192419 ], [ 109.332069639385736, -7.112071104138238 ], [ 109.331941984671005, -7.112102037947068 ], [ 109.331855926225842, -7.111883334029699 ], [ 109.331754014166791, -7.111899998817023 ], [ 109.331737641492055, -7.111846443984462 ], [ 109.331684194221225, -7.111671618571791 ], [ 109.331815323731178, -7.111650527079064 ], [ 109.331793642959838, -7.111524586370479 ] ] ] ] } },
{ "type": "Feature", "properties": { "id": null }, "geometry": { "type": "MultiPolygon", "coordinates": [ [ [ [ 109.330889998946446, -7.112631767259015 ], [ 109.33092860250224, -7.112625053597138 ], [ 109.33092860250224, -7.112625053597138 ], [ 109.330955457149742, -7.112656943491054 ], [ 109.330972241304437, -7.112727436940766 ], [ 109.330962170811631, -7.11274254267999 ], [ 109.331046091585094, -7.112870102255658 ], [ 109.331099800880111, -7.112933882043492 ], [ 109.331052805246969, -7.11301444598602 ], [ 109.330992382290077, -7.113001018662265 ], [ 109.330945386656936, -7.113009410739612 ], [ 109.330889998946446, -7.112631767259015 ] ] ] ] } },
{ "type": "Feature", "properties": { "id": 0 }, "geometry": { "type": "MultiPolygon", "coordinates": [ [ [ [ 109.323832261898076, -7.11888722171318 ], [ 109.323936323657108, -7.118895613790528 ], [ 109.323932966826192, -7.119006389211449 ], [ 109.324298861398461, -7.119019816535229 ], [ 109.324097451542173, -7.119274935686576 ], [ 109.32398164087482, -7.119405852093166 ], [ 109.323867508622868, -7.119462918219142 ], [ 109.323813394656952, -7.119374368093133 ], [ 109.323813799327922, -7.119372283783775 ], [ 109.323832261898076, -7.11888722171318 ] ] ] ] } },
{ "type": "Feature", "properties": { "id": 0 }, "geometry": { "type": "MultiPolygon", "coordinates": [ [ [ [ 109.327404595650421, -7.115069565835029 ], [ 109.327516383853322, -7.115164496202226 ], [ 109.327704366385774, -7.115641166195473 ], [ 109.327643943428995, -7.11581572140426 ], [ 109.327744648357111, -7.115839219220845 ], [ 109.327815141806809, -7.115896285346878 ], [ 109.327737934695165, -7.11596006513463 ], [ 109.327662043416979, -7.115981718638864 ], [ 109.327600990646715, -7.115933383832441 ], [ 109.327555556144148, -7.116117687868268 ], [ 109.327431673277488, -7.116051618600352 ], [ 109.32748815722158, -7.115908755841758 ], [ 109.327211560079263, -7.115700659331651 ], [ 109.327404595650421, -7.115069565835029 ] ] ] ] } },
{ "type": "Feature", "properties": { "id": null }, "geometry": { "type": "MultiPolygon", "coordinates": [ [ [ [ 109.328649314295049, -7.116237003687125 ], [ 109.328951429079524, -7.116389739494834 ], [ 109.328926252847481, -7.11644848403626 ], [ 109.328927931262953, -7.116525691147849 ], [ 109.328756732885083, -7.116458554529076 ], [ 109.328728199822109, -7.116458554529076 ], [ 109.32857378559892, -7.116377990586549 ], [ 109.328602318661908, -7.116329316537938 ], [ 109.328602318661908, -7.116295748228552 ], [ 109.328607353908311, -7.116253787841819 ], [ 109.328607353908311, -7.116253787841819 ], [ 109.328649314295049, -7.116237003687125 ] ] ] ] } },
{ "type": "Feature", "properties": { "id": null }, "geometry": { "type": "MultiPolygon", "coordinates": [ [ [ [ 109.329329911767843, -7.116560937872703 ], [ 109.32956488993355, -7.116635627361088 ], [ 109.329522929546812, -7.116671713293679 ], [ 109.329451596889371, -7.116706120810799 ], [ 109.329420546203181, -7.116727101004166 ], [ 109.329392013140207, -7.116769900598634 ], [ 109.329347535130267, -7.116749759613001 ], [ 109.329345017507066, -7.116685979825167 ], [ 109.329345017507066, -7.116685140617433 ], [ 109.329328233352371, -7.116652411515781 ], [ 109.329328233352371, -7.116650733100312 ], [ 109.329328233352371, -7.116650733100312 ], [ 109.329329911767843, -7.116560937872703 ] ] ] ] } },
{ "type": "Feature", "properties": { "id": null }, "geometry": { "type": "MultiPolygon", "coordinates": [ [ [ [ 109.329235920501546, -7.117072015383114 ], [ 109.329262775149047, -7.117030054996381 ], [ 109.329262775149047, -7.117030054996381 ], [ 109.329264453564519, -7.116976345701362 ], [ 109.329304735535786, -7.116969632039485 ], [ 109.329353409584385, -7.116976345701362 ], [ 109.329360123246275, -7.116922636406343 ], [ 109.329400405217527, -7.116907530667119 ], [ 109.329433973526918, -7.116845429294755 ], [ 109.329670630108097, -7.116944455807445 ], [ 109.329613563982136, -7.117040125489196 ], [ 109.329714268910294, -7.117075372214052 ], [ 109.329709233663891, -7.117350632351021 ], [ 109.329235920501546, -7.117072015383114 ] ] ] ] } },
{ "type": "Feature", "properties": { "id": null }, "geometry": { "type": "MultiPolygon", "coordinates": [ [ [ [ 109.331090989199112, -7.116315889214176 ], [ 109.331121200677558, -7.116297426644013 ], [ 109.331121200677558, -7.116297426644013 ], [ 109.331252117084176, -7.116297426644013 ], [ 109.331320932118416, -7.116307497136829 ], [ 109.331332681026694, -7.116446805620783 ], [ 109.331273936485275, -7.116435056712498 ], [ 109.331218548774785, -7.116428343050621 ], [ 109.331107773353807, -7.116418272557804 ], [ 109.331070848213486, -7.116413237311397 ], [ 109.331090989199112, -7.116315889214176 ] ] ] ] } },
{ "type": "Feature", "properties": { "id": null }, "geometry": { "type": "MultiPolygon", "coordinates": [ [ [ [ 109.330722577003613, -7.112658621906522 ], [ 109.330807336984819, -7.112643516167298 ], [ 109.330807336984819, -7.112643516167298 ], [ 109.330836709255522, -7.112995983415855 ], [ 109.330787195999179, -7.112990108961712 ], [ 109.330744396404711, -7.112968289560611 ], [ 109.330722577003613, -7.112658621906522 ] ] ] ] } },
{ "type": "Feature", "properties": { "id": null }, "geometry": { "type": "MultiPolygon", "coordinates": [ [ [ [ 109.32475581001016, -7.117257480292462 ], [ 109.324874977508486, -7.11728769177091 ], [ 109.324942114127253, -7.117299440679195 ], [ 109.325118347751541, -7.117232304060423 ], [ 109.325136810321695, -7.117208806243852 ], [ 109.325234158418922, -7.117173559518996 ], [ 109.325286189298467, -7.117232304060423 ], [ 109.325291224544884, -7.117291048601849 ], [ 109.325309687115038, -7.117319581664827 ], [ 109.325324792854261, -7.117374969375315 ], [ 109.325286189298467, -7.117435392332211 ], [ 109.32523248000345, -7.117445462825026 ], [ 109.324968968774769, -7.117405180853763 ], [ 109.324713849623436, -7.11736154205156 ], [ 109.324713849623436, -7.11736154205156 ], [ 109.32475581001016, -7.117257480292462 ] ] ] ] } },
{ "type": "Feature", "properties": { "id": 0 }, "geometry": { "type": "MultiPolygon", "coordinates": [ [ [ [ 109.322770244510082, -7.113496151225661 ], [ 109.322917945071367, -7.114080239809027 ], [ 109.322820596974168, -7.114127235442197 ], [ 109.32271523371702, -7.114140203227691 ], [ 109.322699315039756, -7.114142162449468 ], [ 109.322602402963184, -7.114154090089698 ], [ 109.322367424797562, -7.114086953470917 ], [ 109.322270076700136, -7.114328645298428 ], [ 109.322213010574274, -7.114321931636539 ], [ 109.322065310012988, -7.114389068255377 ], [ 109.321961248253956, -7.114395781917267 ], [ 109.321920966282619, -7.114066812485305 ], [ 109.322770244510082, -7.113496151225661 ] ] ] ] } },
{ "type": "Feature", "properties": { "id": null }, "geometry": { "type": "MultiPolygon", "coordinates": [ [ [ [ 109.33000253676741, -7.116361206431851 ], [ 109.3300847791254, -7.116233646856182 ], [ 109.3300847791254, -7.116233646856182 ], [ 109.330160307821515, -7.116294069813078 ], [ 109.330177091976211, -7.116317567629649 ], [ 109.330286188981717, -7.11638806107936 ], [ 109.330292902643592, -7.116399809987645 ], [ 109.330252620672326, -7.116441770374378 ], [ 109.33024590701045, -7.116475338683764 ], [ 109.330219052362949, -7.116515620655028 ], [ 109.330219052362949, -7.116522334316906 ], [ 109.330155272575112, -7.11651058540862 ], [ 109.330155272575112, -7.11651058540862 ], [ 109.33000253676741, -7.116361206431851 ] ] ] ] } },
{ "type": "Feature", "properties": { "id": null }, "geometry": { "type": "MultiPolygon", "coordinates": [ [ [ [ 109.317402671839247, -7.110558924154402 ], [ 109.317451345887875, -7.110416258839511 ], [ 109.31736574669894, -7.110397796269349 ], [ 109.31736574669894, -7.110342408558862 ], [ 109.317372460360815, -7.110276950355558 ], [ 109.317374138776287, -7.11022324106054 ], [ 109.317364068283467, -7.110214848983193 ], [ 109.317364068283467, -7.110214848983193 ], [ 109.317320429481256, -7.110182959089276 ], [ 109.317295253249227, -7.110087289407525 ], [ 109.31730028849563, -7.110021831204221 ], [ 109.317352319375175, -7.109919447860593 ], [ 109.317478200535376, -7.109983227648427 ], [ 109.317432883317707, -7.110110787224095 ], [ 109.317498341521016, -7.110156104441767 ], [ 109.317459737965208, -7.110261844616332 ], [ 109.317521839337573, -7.110285342432903 ], [ 109.317518482506628, -7.110305483418535 ], [ 109.31757554863259, -7.110320589157759 ], [ 109.31757554863259, -7.110406188346694 ], [ 109.31764772049776, -7.110496822782038 ], [ 109.317635971589482, -7.110547175246117 ], [ 109.317635971589482, -7.110547175246117 ], [ 109.31764436366683, -7.11063948809693 ], [ 109.317516804091156, -7.110681448483663 ], [ 109.317402671839247, -7.110558924154402 ] ] ] ] } },
{ "type": "Feature", "properties": { "id": null }, "geometry": { "type": "MultiPolygon", "coordinates": [ [ [ [ 109.325120026167255, -7.112265872686705 ], [ 109.325244228911984, -7.112279300010459 ], [ 109.325197233278843, -7.112604912611507 ], [ 109.325081422611461, -7.1125998773651 ], [ 109.325081422611461, -7.1125998773651 ], [ 109.325081422611461, -7.1125998773651 ], [ 109.325120026167255, -7.112265872686705 ] ] ] ] } },
{ "type": "Feature", "properties": { "id": 0 }, "geometry": { "type": "MultiPolygon", "coordinates": [ [ [ [ 109.327198240967391, -7.109531969071838 ], [ 109.327189114416853, -7.109627077726202 ], [ 109.32605376773671, -7.109614858099633 ], [ 109.326042993327974, -7.109542512676683 ], [ 109.326150247169323, -7.109400140820924 ], [ 109.326313053781462, -7.109278809058594 ], [ 109.326361577035868, -7.109525803554504 ], [ 109.327198240967391, -7.109531969071838 ] ] ] ] } },
{ "type": "Feature", "properties": { "id": null }, "geometry": { "type": "MultiPolygon", "coordinates": [ ] } },
{ "type": "Feature", "properties": { "id": 0 }, "geometry": { "type": "MultiPolygon", "coordinates": [ [ [ [ 109.322699315039756, -7.114142162449468 ], [ 109.32271523371702, -7.114140203227691 ], [ 109.322841890718166, -7.114152678004984 ], [ 109.32264239397972, -7.114509819019077 ], [ 109.322578220203752, -7.114472151802715 ], [ 109.322587985778398, -7.114434484586468 ], [ 109.322699315039756, -7.114142162449468 ] ] ] ] } },
{ "type": "Feature", "properties": { "id": null }, "geometry": { "type": "MultiPolygon", "coordinates": [ [ [ [ 109.322812593994215, -7.113525239836687 ], [ 109.323108351396513, -7.113304816867047 ], [ 109.323485023559812, -7.113530820165032 ], [ 109.323448751425573, -7.113815416910643 ], [ 109.322929780889467, -7.114047000536972 ], [ 109.322812593994215, -7.113525239836687 ] ] ] ] } },
{ "type": "Feature", "properties": { "id": null }, "geometry": { "type": "MultiPolygon", "coordinates": [ [ [ [ 109.331775996398804, -7.113758218545104 ], [ 109.331803898040519, -7.113747057888414 ], [ 109.331965727562533, -7.113754033298846 ], [ 109.332022925928072, -7.11381681199273 ], [ 109.331992234122183, -7.114168372678484 ], [ 109.331992234122183, -7.114168372678484 ], [ 109.331953171823756, -7.114125125133808 ], [ 109.331879232473185, -7.114125125133808 ], [ 109.331856911159804, -7.114143261200931 ], [ 109.331838775092677, -7.114137680872584 ], [ 109.331810873450962, -7.114137680872584 ], [ 109.331704847212393, -7.114157212021794 ], [ 109.331775996398804, -7.113758218545104 ] ] ] ] } },
{ "type": "Feature", "properties": { "id": null }, "geometry": { "type": "MultiPolygon", "coordinates": [ [ [ [ 109.336188641035577, -7.111093088604393 ], [ 109.33619910415122, -7.111066930815278 ], [ 109.33619910415122, -7.111066930815278 ], [ 109.336314198423324, -7.110979040643856 ], [ 109.336347680393388, -7.110983225890114 ], [ 109.336368606624674, -7.110992642694195 ], [ 109.336402088594753, -7.111022985729567 ], [ 109.336427200072293, -7.111041819337729 ], [ 109.336436616876384, -7.111058560322762 ], [ 109.336441848434205, -7.111090995981264 ], [ 109.336452311549849, -7.111104598031603 ], [ 109.336522414424678, -7.11113598737854 ], [ 109.336556942706295, -7.111157959921395 ], [ 109.336598795168882, -7.111207136564929 ], [ 109.336628091892692, -7.111217599680575 ], [ 109.336675175913101, -7.111222831238398 ], [ 109.336705518948463, -7.111222831238398 ], [ 109.336719120998808, -7.111309675098257 ], [ 109.336609258284525, -7.111330601329548 ], [ 109.336551711148473, -7.111322230837032 ], [ 109.336489978766167, -7.111365129611179 ], [ 109.336470098846448, -7.111359898053355 ], [ 109.336456496796103, -7.111371407480566 ], [ 109.336439755811071, -7.111355712807097 ], [ 109.336409412775694, -7.111259452143158 ], [ 109.336409412775694, -7.111241664846561 ], [ 109.336393718102229, -7.111246896404383 ], [ 109.336349773016522, -7.111260498454723 ], [ 109.336305827930801, -7.11125317427377 ], [ 109.336188641035577, -7.111093088604393 ] ] ] ] } },
{ "type": "Feature", "properties": { "id": null }, "geometry": { "type": "MultiPolygon", "coordinates": [ [ [ [ 109.327841167373435, -7.111793594196853 ], [ 109.327858431514159, -7.111797256287435 ], [ 109.327860198398866, -7.111797256287435 ], [ 109.327849537865944, -7.111891424328141 ], [ 109.327737582528542, -7.111954203022014 ], [ 109.327733397282273, -7.111983499745822 ], [ 109.327714563674121, -7.111992916549903 ], [ 109.327703054246911, -7.112054648932213 ], [ 109.327636090306768, -7.1120609268016 ], [ 109.327623534568005, -7.112049417374389 ], [ 109.327636090306768, -7.111980360811128 ], [ 109.327396484958484, -7.112038954258744 ], [ 109.327395438646931, -7.11196466613766 ], [ 109.327438337421071, -7.111878868589366 ], [ 109.327658062849551, -7.111827599322824 ], [ 109.327658062849551, -7.111829691945954 ], [ 109.327675850146065, -7.111769529030965 ], [ 109.327736536216975, -7.111769529030868 ], [ 109.327841167373435, -7.111793594196853 ] ] ] ] } },
{ "type": "Feature", "properties": { "id": null }, "geometry": { "type": "MultiPolygon", "coordinates": [ [ [ [ 109.327755369825084, -7.111559220406393 ], [ 109.327742814086307, -7.111540386798231 ], [ 109.327728165724409, -7.111433663018646 ], [ 109.327851630489022, -7.111425292526129 ], [ 109.327878834589711, -7.111527831059457 ], [ 109.327845352619633, -7.111584331883942 ], [ 109.327755369825084, -7.111559220406393 ] ] ] ] } }
]
}
