{
"type": "FeatureCollection",
"name": "KOLAMKOLAM",
"crs": { "type": "name", "properties": { "name": "urn:ogc:def:crs:OGC:1.3:CRS84" } },
"features": [
{ "type": "Feature", "properties": { "id": null }, "geometry": { "type": "MultiPolygon", "coordinates": [ [ [ [ 109.327089683155265, -7.111053038122604 ], [ 109.327045040528489, -7.111361816291118 ], [ 109.326925993523759, -7.111430640340726 ], [ 109.326955755274952, -7.111177665455679 ], [ 109.32699109735448, -7.111047457794257 ], [ 109.326994817573365, -7.111047457794257 ], [ 109.326994817573365, -7.111047457794257 ], [ 109.327089683155265, -7.111053038122604 ] ] ] ] } },
{ "type": "Feature", "properties": { "id": null }, "geometry": { "type": "MultiPolygon", "coordinates": [ [ [ [ 109.327428223074961, -7.110991654510791 ], [ 109.327463565154488, -7.110986074182444 ], [ 109.327465425263938, -7.111192546331269 ], [ 109.327325917055276, -7.111272531037572 ], [ 109.327331497383625, -7.11110884140607 ], [ 109.327400321433231, -7.111114421734417 ], [ 109.327428223074961, -7.110991654510791 ] ] ] ] } },
{ "type": "Feature", "properties": { "id": null }, "geometry": { "type": "MultiPolygon", "coordinates": [ [ [ [ 109.325608105979242, -7.111005605331657 ], [ 109.325648098332394, -7.110995374729689 ], [ 109.325647168277669, -7.110906089476142 ], [ 109.325786676486331, -7.110850286192676 ], [ 109.325807137690276, -7.110946081829293 ], [ 109.325902933326887, -7.110924690570632 ], [ 109.325942925680039, -7.111113491679692 ], [ 109.325802487416652, -7.111147903704497 ], [ 109.325763425118225, -7.111029786754493 ], [ 109.325616476471765, -7.111075359435991 ], [ 109.325608105979242, -7.111005605331657 ] ] ] ] } },
{ "type": "Feature", "properties": { "id": null }, "geometry": { "type": "MultiPolygon", "coordinates": [ [ [ [ 109.324707813005972, -7.111620371504513 ], [ 109.324771986781954, -7.111590609753331 ], [ 109.324788727766986, -7.111664084076561 ], [ 109.32471804360793, -7.111712446922232 ], [ 109.324707813005972, -7.111620371504513 ] ] ] ] } },
{ "type": "Feature", "properties": { "id": null }, "geometry": { "type": "MultiPolygon", "coordinates": [ [ [ [ 109.322798410656688, -7.112960580362431 ], [ 109.322976981163791, -7.1129289585018 ], [ 109.322976981163791, -7.1129289585018 ], [ 109.322956519959845, -7.113018243755346 ], [ 109.322912807387794, -7.112997782551409 ], [ 109.322814221587009, -7.113020103864795 ], [ 109.322798410656688, -7.112960580362431 ] ] ] ] } },
{ "type": "Feature", "properties": { "id": null }, "geometry": { "type": "MultiPolygon", "coordinates": [ [ [ [ 109.342182611223478, -7.110887488381654 ], [ 109.342242599753206, -7.110887488381654 ], [ 109.342218883357731, -7.111120467090127 ], [ 109.342164475156352, -7.11111907200804 ], [ 109.342182611223478, -7.110887488381654 ] ] ] ] } },
{ "type": "Feature", "properties": { "id": null }, "geometry": { "type": "MultiPolygon", "coordinates": [ [ [ [ 109.323773805548797, -7.112696212306999 ], [ 109.323859603097119, -7.112696212306999 ], [ 109.323859603097119, -7.11275480575464 ], [ 109.323785663746534, -7.112754108213597 ], [ 109.323771712925662, -7.112730391818123 ], [ 109.323773805548797, -7.112696212306999 ] ] ] ] } },
{ "type": "Feature", "properties": { "id": null }, "geometry": { "type": "MultiPolygon", "coordinates": [ [ [ [ 109.323770317843582, -7.11265191845075 ], [ 109.323812867847224, -7.112658893861183 ], [ 109.323807985059915, -7.112688888126047 ], [ 109.32375636702271, -7.112681912715614 ], [ 109.323758459645845, -7.11266656681266 ], [ 109.323770317843582, -7.11265191845075 ] ] ] ] } },
{ "type": "Feature", "properties": { "id": null }, "geometry": { "type": "MultiPolygon", "coordinates": [ [ [ [ 109.32383100391435, -7.112599602872498 ], [ 109.323867973589643, -7.112607275823975 ], [ 109.323867276048603, -7.112635875006752 ], [ 109.323819843257652, -7.112633084842579 ], [ 109.32383100391435, -7.112599602872498 ] ] ] ] } },
{ "type": "Feature", "properties": { "id": null }, "geometry": { "type": "MultiPolygon", "coordinates": [ [ [ [ 109.333246412917433, -7.11100990683472 ], [ 109.333874199856453, -7.111115933073309 ], [ 109.333757012961172, -7.111526087206796 ], [ 109.333614714588322, -7.111503765893409 ], [ 109.333634245737542, -7.111386578998127 ], [ 109.333190609633974, -7.111288923252059 ], [ 109.333246412917433, -7.11100990683472 ] ] ] ] } },
{ "type": "Feature", "properties": { "id": null }, "geometry": { "type": "MultiPolygon", "coordinates": [ [ [ [ 109.328399897748255, -7.109934996086928 ], [ 109.328482207591378, -7.10990011903476 ], [ 109.328501738740584, -7.109967082974921 ], [ 109.32849825103537, -7.110012423142739 ], [ 109.328397805125121, -7.110003355109176 ], [ 109.328399897748255, -7.109934996086928 ] ] ] ] } },
{ "type": "Feature", "properties": { "id": null }, "geometry": { "type": "MultiPolygon", "coordinates": [ [ [ [ 109.323905175778862, -7.11260355560509 ], [ 109.323979580156816, -7.112607275823987 ], [ 109.324009341907995, -7.11271888239092 ], [ 109.324024222783592, -7.112721672555094 ], [ 109.32403352333084, -7.112790496604702 ], [ 109.323994461032413, -7.112837929395648 ], [ 109.323990740813514, -7.112851880216515 ], [ 109.323975859937917, -7.112875131584627 ], [ 109.323973069773743, -7.11288629224132 ], [ 109.32395818889816, -7.112909543609431 ], [ 109.323949818405637, -7.112926284594471 ], [ 109.323934007475316, -7.112950466017306 ], [ 109.323927497092242, -7.112969067111795 ], [ 109.323902385614687, -7.112997898808253 ], [ 109.323895875231614, -7.113021150176364 ], [ 109.323892155012715, -7.11303510099723 ], [ 109.323873553918233, -7.113044401544474 ], [ 109.323861463206811, -7.113046261653923 ], [ 109.323849372495403, -7.113049051818097 ], [ 109.323828911291457, -7.113040681325576 ], [ 109.323821470853659, -7.113038821216128 ], [ 109.32381589052531, -7.11303510099723 ], [ 109.323795429321379, -7.11302673050471 ], [ 109.323785198719406, -7.113017429957465 ], [ 109.323768457734374, -7.11300161902715 ], [ 109.3237656675702, -7.112994178589354 ], [ 109.323772177953273, -7.112981157823213 ], [ 109.323784268664681, -7.112971857275968 ], [ 109.323795429321379, -7.112971857275968 ], [ 109.323820540798934, -7.112981157823213 ], [ 109.323848442440678, -7.112979297713763 ], [ 109.323862393261535, -7.112977437604314 ], [ 109.323866113480435, -7.112969997166519 ], [ 109.323866113480435, -7.112956976400377 ], [ 109.323862393261535, -7.112939305360612 ], [ 109.323860533152086, -7.112915123937777 ], [ 109.323864253370985, -7.112897452898013 ], [ 109.323872623863508, -7.112882572022421 ], [ 109.323879134246582, -7.112870481311004 ], [ 109.323881924410756, -7.112854670380688 ], [ 109.323881924410756, -7.112828628848404 ], [ 109.32388471457493, -7.112804447425569 ], [ 109.323880994356031, -7.112789566549978 ], [ 109.323880064301306, -7.112775615729111 ], [ 109.323877274137146, -7.11271237200785 ], [ 109.323868903644623, -7.112682610256669 ], [ 109.323880064301321, -7.112650058341313 ], [ 109.32388657468438, -7.112635177465722 ], [ 109.323892155012729, -7.11262866708265 ], [ 109.323905175778862, -7.11260355560509 ] ] ] ] } },
{ "type": "Feature", "properties": { "id": null }, "geometry": { "type": "MultiPolygon", "coordinates": [ [ [ [ 109.323924706928082, -7.113010919574396 ], [ 109.323952608569812, -7.112965346892898 ], [ 109.323966559390684, -7.112943025579512 ], [ 109.323973999828468, -7.112927214649197 ], [ 109.323983300375716, -7.112894662733841 ], [ 109.324000041360762, -7.112863040873211 ], [ 109.324008411853271, -7.112845369833446 ], [ 109.324038173604464, -7.112803517370846 ], [ 109.324048404206422, -7.113005339246049 ], [ 109.324039103659189, -7.113017429957467 ], [ 109.323924706928082, -7.113010919574396 ] ] ] ] } },
{ "type": "Feature", "properties": { "id": null }, "geometry": { "type": "MultiPolygon", "coordinates": [ [ [ [ 109.342107276790841, -7.110861563106218 ], [ 109.342174240730998, -7.110824360917239 ], [ 109.342174240730998, -7.110824360917239 ], [ 109.342182611223478, -7.110887488381654 ], [ 109.342164475156352, -7.11111907200804 ], [ 109.342218883357731, -7.111120467090127 ], [ 109.342226323795572, -7.111142439632999 ], [ 109.342230044014471, -7.111183362040873 ], [ 109.342230044014471, -7.1112224243393 ], [ 109.342244924890053, -7.111252186090482 ], [ 109.342226323795572, -7.111287528170011 ], [ 109.342228183905021, -7.111322870249539 ], [ 109.342246784999503, -7.111358212329068 ], [ 109.342248645108953, -7.111395414518046 ], [ 109.342151919417617, -7.111447497582614 ], [ 109.342109136900291, -7.11142145605033 ], [ 109.342077515039662, -7.111399134736944 ], [ 109.342055193726267, -7.111358212329068 ], [ 109.342040312850685, -7.111298688826704 ], [ 109.342031012303437, -7.111246605762135 ], [ 109.342021711756189, -7.111190802478669 ], [ 109.342003110661707, -7.111125698647959 ], [ 109.342001250552258, -7.111060594817247 ], [ 109.342003110661707, -7.111001071314883 ], [ 109.342023571865639, -7.110962009016457 ], [ 109.342107276790841, -7.110861563106218 ] ] ] ] } },
{ "type": "Feature", "properties": { "id": null }, "geometry": { "type": "MultiPolygon", "coordinates": [ ] } }
]
}
