{
"type": "FeatureCollection",
"name": "peternakan2",
"crs": { "type": "name", "properties": { "name": "urn:ogc:def:crs:OGC:1.3:CRS84" } },
"features": [
{ "type": "Feature", "properties": { "id": null }, "geometry": { "type": "MultiPolygon", "coordinates": [ [ [ [ 109.331589757374431, -7.111576947564082 ], [ 109.331655352283491, -7.111569969382266 ], [ 109.331690243192568, -7.111681620291316 ], [ 109.331741881738012, -7.111886778836697 ], [ 109.331741881738012, -7.111886778836697 ], [ 109.331679078101672, -7.111857470473071 ], [ 109.3316400002835, -7.111724885018573 ], [ 109.331422281010845, -7.111743028291293 ], [ 109.331415302829029, -7.111645333745875 ], [ 109.331605109374422, -7.111631377382244 ], [ 109.331589757374431, -7.111576947564082 ] ] ] ] } },
{ "type": "Feature", "properties": { "id": null }, "geometry": { "type": "MultiPolygon", "coordinates": [ [ [ [ 109.324696652351676, -7.11737775901805 ], [ 109.325253290104129, -7.117453093450711 ], [ 109.325250499939955, -7.11749913115956 ], [ 109.325140288455131, -7.117517267226682 ], [ 109.324684096612899, -7.117444722958194 ], [ 109.324696652351676, -7.11737775901805 ] ] ] ] } },
{ "type": "Feature", "properties": { "id": null }, "geometry": { "type": "MultiPolygon", "coordinates": [ [ [ [ 109.320584996669524, -7.110487797363755 ], [ 109.320657192167516, -7.110462685886193 ], [ 109.320657192167516, -7.110462685886193 ], [ 109.320682303645071, -7.110575687535218 ], [ 109.320609061835512, -7.11060498425904 ], [ 109.320584996669524, -7.110487797363755 ] ] ] ] } },
{ "type": "Feature", "properties": { "id": null }, "geometry": { "type": "MultiPolygon", "coordinates": [ [ [ [ 109.339070183088381, -7.109236757502546 ], [ 109.339197135558265, -7.109256288651761 ], [ 109.339197135558265, -7.109256288651761 ], [ 109.339183184737394, -7.109439044405117 ], [ 109.339054837185429, -7.109418118173816 ], [ 109.339070183088381, -7.109236757502546 ] ] ] ] } }
]
}
