{
"type": "FeatureCollection",
"name": "sawahbenar",
"crs": { "type": "name", "properties": { "name": "urn:ogc:def:crs:OGC:1.3:CRS84" } },
"features": [
{ "type": "Feature", "properties": { "OBJECTID_1": 14, "Shape_Leng": 0.00689549927, "Shape_Area": 1.74191e-06, "Keterangan": "Kelompok Tani Siglunggung", "KT": null }, "geometry": { "type": "MultiPolygon", "coordinates": [ [ [ [ 109.328481666096081, -7.119574818223214, 0.0 ], [ 109.328252360558054, -7.119669077066192, 0.0 ], [ 109.328102453465533, -7.119701199051065, 0.0 ], [ 109.327970395217619, -7.119704767560904, 0.0 ], [ 109.327784795831747, -7.119665507657032, 0.0 ], [ 109.327524245147856, -7.119565569595295, 0.0 ], [ 109.327310094085647, -7.119458495413198, 0.0 ], [ 109.326953174749292, -7.11926932661811, 0.0 ], [ 109.327199634855333, -7.118989373061083, 0.0 ], [ 109.327461375342239, -7.11903696158646, 0.0 ], [ 109.327746910991209, -7.11882281052425, 0.0 ], [ 109.327806397547249, -7.118549172905944, 0.0 ], [ 109.327794499516585, -7.118311226681726, 0.0 ], [ 109.328163315984284, -7.118025691032756, 0.0 ], [ 109.328579721876736, -7.11776395054585, 0.0 ], [ 109.328770078676257, -7.118156561276237, 0.0 ], [ 109.328889051788394, -7.118680043149425, 0.0 ], [ 109.328710592120217, -7.118917989373642, 0.0 ], [ 109.328520235320639, -7.119179729860605, 0.0 ], [ 109.328187111146349, -7.119048859617124, 0.0 ], [ 109.328020548609516, -7.119251113547989, 0.0 ], [ 109.328481666096081, -7.119574818223214, 0.0 ] ] ] ] } },
{ "type": "Feature", "properties": { "OBJECTID_1": 25, "Shape_Leng": 0.06130986713, "Shape_Area": 3.616558e-05, "Keterangan": "Kelompok Tani Siparuk", "KT": null }, "geometry": { "type": "MultiPolygon", "coordinates": [ [ [ [ 109.337735330221392, -7.114152546602725, 0.0 ], [ 109.337863599625507, -7.113976399990804, 0.0 ], [ 109.337777799805679, -7.113550599780297, 0.0 ], [ 109.337777799805679, -7.113307125423432, 0.0 ], [ 109.338023416347653, -7.113136126530947, 0.0 ], [ 109.338023416347653, -7.112880335059344, 0.0 ], [ 109.33814238945979, -7.1127494639166, 0.0 ], [ 109.338124543313086, -7.112505569576342, 0.0 ], [ 109.338225670278518, -7.112350904170853, 0.0 ], [ 109.338374386668647, -7.112208136796028, 0.0 ], [ 109.338517154043473, -7.111875012621681, 0.0 ], [ 109.338244062313663, -7.11170569546141, 0.0 ], [ 109.33813781820578, -7.111770365709788, 0.0 ], [ 109.337995050831012, -7.112032106196693, 0.0 ], [ 109.337777092039232, -7.112555588069881, 0.0 ], [ 109.337548664239534, -7.112841122819532, 0.0 ], [ 109.337324433575816, -7.1127941116589, 0.0 ], [ 109.336881853814589, -7.112679897759051, 0.0 ], [ 109.336403582659273, -7.112572821778258, 0.0 ], [ 109.335808717098701, -7.112482402141097, 0.0 ], [ 109.335418485974401, -7.112491919666297, 0.0 ], [ 109.335199574800583, -7.112368188241248, 0.0 ], [ 109.334752236726388, -7.111764756638138, 0.0 ], [ 109.334513100699098, -7.111750479900707, 0.0 ], [ 109.334074090347031, -7.111704080279026, 0.0 ], [ 109.334040300119796, -7.111640599833777, 0.0 ], [ 109.33407789987524, -7.111182899770938, 0.0 ], [ 109.334163320181119, -7.110949791, 0.0 ], [ 109.334477408405746, -7.110578595825473, 0.0 ], [ 109.334658247680068, -7.110302577701759, 0.0 ], [ 109.334801015954156, -7.109741024828395, 0.0 ], [ 109.335124622603303, -7.109569703978593, 0.0 ], [ 109.335705210527124, -7.109484043553721, 0.0 ], [ 109.336104960075886, -7.109265133279223, 0.0 ], [ 109.336455399796932, -7.108791999950768, 0.0 ], [ 109.336621093588633, -7.108580689846917, 0.0 ], [ 109.336799554156187, -7.108623520059382, 0.0 ], [ 109.337085088006461, -7.108623520059382, 0.0 ], [ 109.337406315948783, -7.108495029422045, 0.0 ], [ 109.338220091783853, -7.108252323985539, 0.0 ], [ 109.338812576839018, -7.108109556610714, 0.0 ], [ 109.339113251675258, -7.108017040653863, 0.0 ], [ 109.339238640550889, -7.108004747820814, 0.0 ], [ 109.339329465782271, -7.108020317783371, 0.0 ], [ 109.339433617167742, -7.108038172023953, 0.0 ], [ 109.339557023038253, -7.108070365954575, 0.0 ], [ 109.339645339161109, -7.108121147073234, 0.0 ], [ 109.339919026242114, -7.1083522611479, 0.0 ], [ 109.340325913709989, -7.108659212352734, 0.0 ], [ 109.340595089791634, -7.108756115202482, 0.0 ], [ 109.340728470042905, -7.108783638054433, 0.0 ], [ 109.341677874434424, -7.10894068216669, 0.0 ], [ 109.342620140906831, -7.109197664340684, 0.0 ], [ 109.342969920525491, -7.109361847271373, 0.0 ], [ 109.343319702842052, -7.109547443959343, 0.0 ], [ 109.343518317216649, -7.109715026327365, 0.0 ], [ 109.343575086021474, -7.109807030569982, 0.0 ], [ 109.343905049978162, -7.110625339887463, 0.0 ], [ 109.344119201939691, -7.11103936707309, 0.0 ], [ 109.344290522789436, -7.111260656953732, 0.0 ], [ 109.344535527792459, -7.111496060794536, 0.0 ], [ 109.344690273237575, -7.111610438370974, 0.0 ], [ 109.345204235786923, -7.11208870862697, 0.0 ], [ 109.34554687748647, -7.112524151368461, 0.0 ], [ 109.345853828691304, -7.112773993824703, 0.0 ], [ 109.346004582945227, -7.112857745888221, 0.0 ], [ 109.346323999652896, -7.112930000119377, 0.0 ], [ 109.345557298830329, -7.113073302590806, 0.0 ], [ 109.34514712883697, -7.113038113917753, 0.0 ], [ 109.344775932763127, -7.112938176755392, 0.0 ], [ 109.344557013495432, -7.112872826619594, 0.0 ], [ 109.344371008515282, -7.112835548821465, 0.0 ], [ 109.343590960854215, -7.112595534156526, 0.0 ], [ 109.343288869585706, -7.112499633151515, 0.0 ], [ 109.343074062917708, -7.112457555671597, 0.0 ], [ 109.34273726321419, -7.112481572066827, 0.0 ], [ 109.342413127763677, -7.112609810894014, 0.0 ], [ 109.34218469996398, -7.112795409380567, 0.0 ], [ 109.341842056465794, -7.11308808294865, 0.0 ], [ 109.341492276847134, -7.113416447910708, 0.0 ], [ 109.341198208430626, -7.113648309321945, 0.0 ], [ 109.340722829495064, -7.113817135452393, 0.0 ], [ 109.340554107685989, -7.113825571093173, 0.0 ], [ 109.340352214383245, -7.113791922059534, 0.0 ], [ 109.339886139833538, -7.113623461053862, 0.0 ], [ 109.339500667921527, -7.11345214020406, 0.0 ], [ 109.339343622909951, -7.113423586729084, 0.0 ], [ 109.339186578797637, -7.113430724648197, 0.0 ], [ 109.338851074117827, -7.11361632313475, 0.0 ], [ 109.338187205375277, -7.113973241571784, 0.0 ], [ 109.337998368430021, -7.114064866300509, 0.0 ], [ 109.337735330221392, -7.114152546602725, 0.0 ] ], [ [ 109.338279207819255, -7.113606069964135, 0.0 ], [ 109.338529051174817, -7.113189664971003, 0.0 ], [ 109.338874073379827, -7.113094486121611, 0.0 ], [ 109.339094173457397, -7.113219408249051, 0.0 ], [ 109.339385657222351, -7.113201562102347, 0.0 ], [ 109.339659295739978, -7.113284842921132, 0.0 ], [ 109.339751592262246, -7.113233567175314, 0.0 ], [ 109.339677141886625, -7.112951718746785, 0.0 ], [ 109.339813960246147, -7.112921975468737, 0.0 ], [ 109.339730679427362, -7.112785156209952, 0.0 ], [ 109.339546270743881, -7.112874386044041, 0.0 ], [ 109.339462989925096, -7.112707823507208, 0.0 ], [ 109.339022789770013, -7.112541261869694, 0.0 ], [ 109.33876104928305, -7.112428236873598, 0.0 ], [ 109.338588537730914, -7.112333058923468, 0.0 ], [ 109.338451719371392, -7.112773259078608, 0.0 ], [ 109.338410078962056, -7.112916026453433, 0.0 ], [ 109.338297053965903, -7.113064742843562, 0.0 ], [ 109.338273259703215, -7.113171818824355, 0.0 ], [ 109.338225670278518, -7.113344329477172, 0.0 ], [ 109.338082902903693, -7.113403816033212, 0.0 ], [ 109.338011519216309, -7.11352873816071, 0.0 ], [ 109.337999621185645, -7.113754786354264, 0.0 ], [ 109.338124543313086, -7.11380237577896, 0.0 ], [ 109.338279207819255, -7.113606069964135, 0.0 ] ], [ [ 109.341947299628259, -7.111572000447438, 0.0 ], [ 109.341943300343075, -7.111498800129482, 0.0 ], [ 109.341982199618883, -7.111481499871275, 0.0 ], [ 109.342007699895476, -7.111508199843513, 0.0 ], [ 109.342046600070603, -7.111497499709799, 0.0 ], [ 109.342078800296463, -7.111452299783764, 0.0 ], [ 109.342247700171299, -7.11143629994524, 0.0 ], [ 109.342209735291135, -7.111250532386123, 0.0 ], [ 109.34223940032814, -7.110881500081121, 0.0 ], [ 109.342159000037896, -7.110892200214835, 0.0 ], [ 109.341858499670082, -7.110844299624659, 0.0 ], [ 109.341794199942456, -7.110807000242801, 0.0 ], [ 109.341771400329947, -7.110745799578922, 0.0 ], [ 109.341740499624393, -7.110756399887919, 0.0 ], [ 109.341727099725915, -7.110816300132115, 0.0 ], [ 109.341555500086315, -7.110773700146126, 0.0 ], [ 109.341560799791125, -7.110595399657939, 0.0 ], [ 109.341407100257527, -7.110555000312957, 0.0 ], [ 109.341299800345553, -7.110560399842541, 0.0 ], [ 109.341124099797412, -7.110625599791547, 0.0 ], [ 109.341036999557957, -7.110489800363951, 0.0 ], [ 109.340945800208601, -7.110499100253207, 0.0 ], [ 109.340920299931952, -7.110527099745809, 0.0 ], [ 109.340912199738284, -7.110589599930051, 0.0 ], [ 109.340842499581754, -7.110592299694815, 0.0 ], [ 109.34083979981699, -7.110644199570118, 0.0 ], [ 109.340511200131857, -7.110661499828325, 0.0 ], [ 109.340169300372963, -7.110721400072521, 0.0 ], [ 109.340151799565945, -7.110942299647377, 0.0 ], [ 109.340086099593861, -7.11094360006706, 0.0 ], [ 109.34007140017502, -7.110967600274478, 0.0 ], [ 109.340009700387441, -7.110964899610394, 0.0 ], [ 109.340013699672568, -7.111026100274273, 0.0 ], [ 109.339768299867217, -7.111015499965276, 0.0 ], [ 109.339754899968739, -7.111087300038832, 0.0 ], [ 109.339583800352159, -7.111130200398406, 0.0 ], [ 109.33956099984033, -7.111191400162966, 0.0 ], [ 109.339414899578003, -7.111224600434923, 0.0 ], [ 109.339263299961374, -7.1110729000942, 0.0 ], [ 109.339294199767551, -7.110954499850266, 0.0 ], [ 109.339203799915481, -7.110910299970328, 0.0 ], [ 109.339171599689621, -7.110846500265723, 0.0 ], [ 109.339100400363236, -7.110817200353495, 0.0 ], [ 109.339045885259452, -7.110813723574438, 0.0 ], [ 109.338898358672395, -7.110920798655911, 0.0 ], [ 109.338822215772723, -7.111068325242968, 0.0 ], [ 109.338903652981287, -7.111064220737148, 0.0 ], [ 109.339085682058624, -7.111014252605628, 0.0 ], [ 109.339085682058624, -7.111107050949613, 0.0 ], [ 109.339367648298378, -7.111242680405326, 0.0 ], [ 109.339567522623156, -7.11123911099611, 0.0 ], [ 109.339760259028765, -7.111157019980453, 0.0 ], [ 109.33995299543443, -7.111124897096261, 0.0 ], [ 109.34024049340411, -7.111300501416963, 0.0 ], [ 109.340368984940767, -7.111357608366859, 0.0 ], [ 109.340388019991167, -7.111452787216308, 0.0 ], [ 109.340521269840792, -7.111476581478996, 0.0 ], [ 109.340611689477953, -7.111576518641357, 0.0 ], [ 109.340763975277298, -7.111747840390478, 0.0 ], [ 109.340987644764027, -7.111809706552663, 0.0 ], [ 109.341130412138853, -7.111762117127967, 0.0 ], [ 109.341220831776013, -7.111771634653167, 0.0 ], [ 109.341572991900136, -7.111904884502792, 0.0 ], [ 109.341725277699481, -7.111847777552839, 0.0 ], [ 109.341841871205474, -7.111802567734287, 0.0 ], [ 109.341887081024026, -7.111707388884838, 0.0 ], [ 109.341894999554654, -7.111633300036715, 0.0 ], [ 109.341947299628259, -7.111572000447438, 0.0 ] ], [ [ 109.343109285764967, -7.110351195950898, 0.0 ], [ 109.34315687518972, -7.110608177225572, 0.0 ], [ 109.343342472776953, -7.11062245396306, 0.0 ], [ 109.343302022170633, -7.110417820426051, 0.0 ], [ 109.34338054467645, -7.110441615588059, 0.0 ], [ 109.34343051280797, -7.11035595426381, 0.0 ], [ 109.343578039395084, -7.110455892325547, 0.0 ], [ 109.343687494981964, -7.11042733885057, 0.0 ], [ 109.343807182155786, -7.110707797826535, 0.0 ], [ 109.34368939884672, -7.1108255811356, 0.0 ], [ 109.343646568634313, -7.111043301607026, 0.0 ], [ 109.343857150287306, -7.111132531441115, 0.0 ], [ 109.343967795677315, -7.111000471394618, 0.0 ], [ 109.343821458893274, -7.110587634911383, 0.0 ], [ 109.343678690619129, -7.110319945409117, 0.0 ], [ 109.34363942981588, -7.110142675544012, 0.0 ], [ 109.343401483591663, -7.109823828107153, 0.0 ], [ 109.342770926637002, -7.109386006658838, 0.0 ], [ 109.342559154281616, -7.109278931577364, 0.0 ], [ 109.342373556694326, -7.109264654839876, 0.0 ], [ 109.34221651258207, -7.109231342152668, 0.0 ], [ 109.342035673307748, -7.109221823728149, 0.0 ], [ 109.341735146859605, -7.109040985353147, 0.0 ], [ 109.341501008364901, -7.10905811743811, 0.0 ], [ 109.341358240990076, -7.109001010488214, 0.0 ], [ 109.341067152926826, -7.108934226833071, 0.0 ], [ 109.340960077845352, -7.108874740276974, 0.0 ], [ 109.340788756096288, -7.108950883176647, 0.0 ], [ 109.340703095671415, -7.108867601458599, 0.0 ], [ 109.340524636003238, -7.10882239163999, 0.0 ], [ 109.340277172253764, -7.10880335658959, 0.0 ], [ 109.340146302010282, -7.108891396620606, 0.0 ], [ 109.339973077295724, -7.108964623918212, 0.0 ], [ 109.339873140133363, -7.108886102311715, 0.0 ], [ 109.339731999632136, -7.108908999950359, 0.0 ], [ 109.339803299682615, -7.109181199552665, 0.0 ], [ 109.340007100447394, -7.109223800437974, 0.0 ], [ 109.340371899643515, -7.109173200083092, 0.0 ], [ 109.340650899919183, -7.109149299700391, 0.0 ], [ 109.340727100375432, -7.10907599955766, 0.0 ], [ 109.340835699807769, -7.10907069985285, 0.0 ], [ 109.341350700174758, -7.109189100096842, 0.0 ], [ 109.341356099704285, -7.109304900400787, 0.0 ], [ 109.341432499810082, -7.10930760016555, 0.0 ], [ 109.341459299607038, -7.109452599657686, 0.0 ], [ 109.341581399661948, -7.109443299768429, 0.0 ], [ 109.341567999763413, -7.109302199736703, 0.0 ], [ 109.341797299905522, -7.109278300253322, 0.0 ], [ 109.34186840030651, -7.109433999879172, 0.0 ], [ 109.341974299974027, -7.109427299929905, 0.0 ], [ 109.34204140019051, -7.109472599680657, 0.0 ], [ 109.342077599701554, -7.109536500109357, 0.0 ], [ 109.34233090454768, -7.10956686571825, 0.0 ], [ 109.342556953640553, -7.109747704992571, 0.0 ], [ 109.342597404246874, -7.10968583883033, 0.0 ], [ 109.342702100621523, -7.109742945780283, 0.0 ], [ 109.343001913007924, -7.109997548348133, 0.0 ], [ 109.343009348602607, -7.110094213776904, 0.0 ], [ 109.343204464614416, -7.110258396707593, 0.0 ], [ 109.343109285764967, -7.110351195950898, 0.0 ] ] ] ] } },
{ "type": "Feature", "properties": { "OBJECTID_1": 26, "Shape_Leng": 0.02863785473, "Shape_Area": 2.811881e-05, "Keterangan": "Kelompok Tani Sepaha", "KT": null }, "geometry": { "type": "MultiPolygon", "coordinates": [ [ [ [ 109.334163320181119, -7.110949791, 0.0 ], [ 109.333905213854621, -7.111136153010989, 0.0 ], [ 109.333851610663373, -7.110993262429076, 0.0 ], [ 109.333853197067469, -7.110303218019055, 0.0 ], [ 109.333653321843371, -7.110417432818224, 0.0 ], [ 109.333410617306185, -7.110583994455737, 0.0 ], [ 109.333177430294256, -7.11067917330513, 0.0 ], [ 109.33296327833267, -7.110702967567875, 0.0 ], [ 109.332839546907621, -7.110931396266892, 0.0 ], [ 109.332699800355556, -7.110871999642995, 0.0 ], [ 109.332512370849315, -7.110293700493855, 0.0 ], [ 109.332417799941595, -7.110290700355506, 0.0 ], [ 109.332167348644305, -7.110305597625199, 0.0 ], [ 109.331822327338614, -7.110246111069102, 0.0 ], [ 109.331575299760345, -7.110203100092974, 0.0 ], [ 109.331272300176579, -7.110160500106929, 0.0 ], [ 109.331272300176579, -7.110080699664536, 0.0 ], [ 109.331060400117451, -7.110088600208712, 0.0 ], [ 109.331001400094578, -7.110035399913727, 0.0 ], [ 109.330856500427217, -7.110024799604787, 0.0 ], [ 109.330754600044827, -7.110022099839966, 0.0 ], [ 109.330682200123476, -7.10985179972073, 0.0 ], [ 109.330475400119667, -7.109830500177395, 0.0 ], [ 109.330467299925999, -7.109676100071908, 0.0 ], [ 109.33037339991256, -7.109636199850684, 0.0 ], [ 109.330314399889687, -7.109662799998148, 0.0 ], [ 109.330250100162061, -7.109524399731242, 0.0 ], [ 109.330051600001411, -7.109492499878911, 0.0 ], [ 109.329944300089437, -7.109455199597733, 0.0 ], [ 109.329850400075941, -7.109247600096637, 0.0 ], [ 109.329759199827265, -7.10923699978764, 0.0 ], [ 109.329625100118335, -7.109300800391566, 0.0 ], [ 109.329557999901851, -7.109247600096637, 0.0 ], [ 109.329458800183545, -7.109266199875151, 0.0 ], [ 109.329407799630303, -7.109351399847185, 0.0 ], [ 109.329300499718329, -7.109409999671698, 0.0 ], [ 109.329153000110921, -7.109572300321361, 0.0 ], [ 109.329102100281773, -7.10954839993866, 0.0 ], [ 109.329013599797861, -7.109652199689208, 0.0 ], [ 109.328927700153315, -7.109670800367098, 0.0 ], [ 109.328811600375104, -7.109604299998409, 0.0 ], [ 109.328696300094236, -7.109823900052902, 0.0 ], [ 109.328619800163722, -7.109885099817461, 0.0 ], [ 109.328562200385306, -7.109891799766672, 0.0 ], [ 109.328481700270288, -7.109878499692968, 0.0 ], [ 109.328379799887898, -7.109902200426177, 0.0 ], [ 109.328267100446396, -7.109900900006494, 0.0 ], [ 109.328084699948988, -7.109895600301684, 0.0 ], [ 109.328023099986126, -7.109818399799281, 0.0 ], [ 109.327816899830111, -7.109751500131551, 0.0 ], [ 109.327671400314955, -7.10983639973, 0.0 ], [ 109.32772099972442, -7.109937600439878, 0.0 ], [ 109.327648599803126, -7.10997620024142, 0.0 ], [ 109.327171200090845, -7.109941599725005, 0.0 ], [ 109.327119700413903, -7.10971329962905, 0.0 ], [ 109.326622199954613, -7.10972389993799, 0.0 ], [ 109.32612590009029, -7.109770799582691, 0.0 ], [ 109.326091000099609, -7.109552499947881, 0.0 ], [ 109.326087191470776, -7.109502619050602, 0.0 ], [ 109.326165248127779, -7.109310422238138, 0.0 ], [ 109.326205212200819, -7.109008488351037, 0.0 ], [ 109.326234399697853, -7.108771699554268, 0.0 ], [ 109.326502930066226, -7.108858646009651, 0.0 ], [ 109.326743999635937, -7.108936699968694, 0.0 ], [ 109.326797600129225, -7.108830199554006, 0.0 ], [ 109.326835199884613, -7.108265999975856, 0.0 ], [ 109.326832993847631, -7.108097154959694, 0.0 ], [ 109.326951966959768, -7.107702163723843, 0.0 ], [ 109.327599399692588, -7.107747799821084, 0.0 ], [ 109.328058404671708, -7.107418769360663, 0.0 ], [ 109.328279657680127, -7.107263413275859, 0.0 ], [ 109.328452169232264, -7.107084955406322, 0.0 ], [ 109.328541399066353, -7.106995724672913, 0.0 ], [ 109.328696063572522, -7.106918391970169, 0.0 ], [ 109.32893995791278, -7.106858905414128, 0.0 ], [ 109.329225493561751, -7.106847008282784, 0.0 ], [ 109.32943964462396, -7.106876750661456, 0.0 ], [ 109.329612156176154, -7.106971928611586, 0.0 ], [ 109.329714400099533, -7.107009110182219, 0.0 ], [ 109.329804363780397, -7.107044252090532, 0.0 ], [ 109.32990192223599, -7.10706804725254, 0.0 ], [ 109.330142247167032, -7.10708708230294, 0.0 ], [ 109.330408746866226, -7.107089461909084, 0.0 ], [ 109.330587206534403, -7.107125153303116, 0.0 ], [ 109.330741871939892, -7.107182261152388, 0.0 ], [ 109.330882259708574, -7.107191778677588, 0.0 ], [ 109.331072616508095, -7.10710849695954, 0.0 ], [ 109.331291349616151, -7.10692504425532, 0.0 ], [ 109.331337496528306, -7.106894240676638, 0.0 ], [ 109.33156424079715, -7.106734907789701, 0.0 ], [ 109.33162465095694, -7.106684953148033, 0.0 ], [ 109.331826905787125, -7.106523148924111, 0.0 ], [ 109.332031540223454, -7.106416073842695, 0.0 ], [ 109.33220523978008, -7.106418453448839, 0.0 ], [ 109.332321834185336, -7.106449387429222, 0.0 ], [ 109.332602328234941, -7.10658428123952, 0.0 ], [ 109.332662143043535, -7.1066058838544, 0.0 ], [ 109.332667101005995, -7.106607675303906, 0.0 ], [ 109.33284060990627, -7.106702651805904, 0.0 ], [ 109.332864879910346, -7.106716138039303, 0.0 ], [ 109.33312186118502, -7.106837490757528, 0.0 ], [ 109.333471641702943, -7.106851766595696, 0.0 ], [ 109.333814285201186, -7.106830351939152, 0.0 ], [ 109.334206895032253, -7.106701861301815, 0.0 ], [ 109.334315801133357, -7.106685924415842, 0.0 ], [ 109.334518075748633, -7.106713506623009, 0.0 ], [ 109.334802216549122, -7.106814087699945, 0.0 ], [ 109.335135999926536, -7.107048999611607, 0.0 ], [ 109.335548772557843, -7.107577315340791, 0.0 ], [ 109.335816122116398, -7.107871497971189, 0.0 ], [ 109.335928669572525, -7.107995341811545, 0.0 ], [ 109.336085714584101, -7.108209492873755, 0.0 ], [ 109.336285588908879, -7.108373676703764, 0.0 ], [ 109.336621093588633, -7.108580689846917, 0.0 ], [ 109.336455399796932, -7.108791999950768, 0.0 ], [ 109.336104960075886, -7.109265133279223, 0.0 ], [ 109.335705210527124, -7.109484043553721, 0.0 ], [ 109.335124622603303, -7.109569703978593, 0.0 ], [ 109.334801015954156, -7.109741024828395, 0.0 ], [ 109.334658247680068, -7.110302577701759, 0.0 ], [ 109.334477408405746, -7.110578595825473, 0.0 ], [ 109.334163320181119, -7.110949791, 0.0 ] ] ] ] } },
{ "type": "Feature", "properties": { "OBJECTID_1": 28, "Shape_Leng": 0.04298833861, "Shape_Area": 2.622691e-05, "Keterangan": "Kelompok Tani Siglunggung", "KT": null }, "geometry": { "type": "MultiPolygon", "coordinates": [ [ [ [ 109.326816899580308, -7.116393999783213, 0.0 ], [ 109.326892900387122, -7.116631800317293, 0.0 ], [ 109.327096700252582, -7.117116200352314, 0.0 ], [ 109.326343028807798, -7.117180982116565, 0.0 ], [ 109.325986109471444, -7.117335647522054, 0.0 ], [ 109.325867136359307, -7.117454620634192, 0.0 ], [ 109.325890931521315, -7.117835334233234, 0.0 ], [ 109.325938520046748, -7.11826363725703, 0.0 ], [ 109.325367449648127, -7.118204150700933, 0.0 ], [ 109.325081913999213, -7.118239842994285, 0.0 ], [ 109.325200887111293, -7.11853727487528, 0.0 ], [ 109.325641088165753, -7.118644350856073, 0.0 ], [ 109.326178659717414, -7.119005207424323, 0.0 ], [ 109.325950494519759, -7.119186258039349, 0.0 ], [ 109.325873111454996, -7.119292383436687, 0.0 ], [ 109.325469796993616, -7.119746824356412, 0.0 ], [ 109.325188490856249, -7.119970322971994, 0.0 ], [ 109.325172401085524, -7.119976668588322, 0.0 ], [ 109.324897320954676, -7.120161624958996, 0.0 ], [ 109.324761690599587, -7.120243716873972, 0.0 ], [ 109.324640337881362, -7.120286547086437, 0.0 ], [ 109.324336957884384, -7.120290115596333, 0.0 ], [ 109.324090683937982, -7.120297255314028, 0.0 ], [ 109.323708304794479, -7.120323582966932, 0.0 ], [ 109.323690508110531, -7.120327382602568, 0.0 ], [ 109.323287614531864, -7.120386484248797, 0.0 ], [ 109.323112109136616, -7.120443921249944, 0.0 ], [ 109.322970531564863, -7.120480802447048, 0.0 ], [ 109.322906097838199, -7.120489179631875, 0.0 ], [ 109.322789693189861, -7.120458197088055, 0.0 ], [ 109.322652300163554, -7.120465006754614, 0.0 ], [ 109.322252549715472, -7.120511406376238, 0.0 ], [ 109.322152612553111, -7.120547097770327, 0.0 ], [ 109.322020551607238, -7.120675589306927, 0.0 ], [ 109.321820678181837, -7.120761248832537, 0.0 ], [ 109.321684310382693, -7.12081594829732, 0.0 ], [ 109.32150658905789, -7.120850478666625, 0.0 ], [ 109.321299575015416, -7.120850479565945, 0.0 ], [ 109.321096132180799, -7.120871894222489, 0.0 ], [ 109.320924809532414, -7.120932570581601, 0.0 ], [ 109.32069281322282, -7.121089614693915, 0.0 ], [ 109.320460815114586, -7.121157429871459, 0.0 ], [ 109.320253802870752, -7.121228813558844, 0.0 ], [ 109.319814965188527, -7.121246241520794, 0.0 ], [ 109.319721593077134, -7.121179964183966, 0.0 ], [ 109.319418284126584, -7.120964670083424, 0.0 ], [ 109.319635328307811, -7.120719835951604, 0.0 ], [ 109.319949417431758, -7.12054851420254, 0.0 ], [ 109.320177845231456, -7.120415264352914, 0.0 ], [ 109.320596630729995, -7.120415264352914, 0.0 ], [ 109.320663255205147, -7.120653210577132, 0.0 ], [ 109.321024933753733, -7.120605622051755, 0.0 ], [ 109.321795878477076, -7.120377193352738, 0.0 ], [ 109.321643593577051, -7.120129729603264, 0.0 ], [ 109.321771871075043, -7.119833086427775, 0.0 ], [ 109.321624557627274, -7.119872747429326, 0.0 ], [ 109.321310468503384, -7.119977443803919, 0.0 ], [ 109.321148665178839, -7.12013924712852, 0.0 ], [ 109.320834576054892, -7.120215390028193, 0.0 ], [ 109.320596630729995, -7.120063104228848, 0.0 ], [ 109.320225434656152, -7.119996479753695, 0.0 ], [ 109.320111220756303, -7.119796604529654, 0.0 ], [ 109.31974954220766, -7.119787087004397, 0.0 ], [ 109.31945448903349, -7.119672873104548, 0.0 ], [ 109.319150523577889, -7.119379717499896, 0.0 ], [ 109.319175508542969, -7.119377337893809, 0.0 ], [ 109.319231748546429, -7.11938698941799, 0.0 ], [ 109.319283144801375, -7.119369858232346, 0.0 ], [ 109.319429719006393, -7.119385086452553, 0.0 ], [ 109.319505861906066, -7.119381278722983, 0.0 ], [ 109.319589619365502, -7.119375568027976, 0.0 ], [ 109.319694314840831, -7.119339399993294, 0.0 ], [ 109.31975332655486, -7.119324172672407, 0.0 ], [ 109.319795323095718, -7.119334760390814, 0.0 ], [ 109.319823876570695, -7.119306206915894, 0.0 ], [ 109.319828159142276, -7.119274798093386, 0.0 ], [ 109.319786757952556, -7.119223401838497, 0.0 ], [ 109.319758204477637, -7.119191993016045, 0.0 ], [ 109.319739644269248, -7.119152018151055, 0.0 ], [ 109.319711089894952, -7.119096338425209, 0.0 ], [ 109.31967968197182, -7.119039231475313, 0.0 ], [ 109.319646845025943, -7.118993545915373, 0.0 ], [ 109.319653983844319, -7.118969275911297, 0.0 ], [ 109.319699669404258, -7.118937866189526, 0.0 ], [ 109.319733933574241, -7.118915023409556, 0.0 ], [ 109.319760504044098, -7.1188884529397, 0.0 ], [ 109.319773828399548, -7.118850381939524, 0.0 ], [ 109.319766214739104, -7.118823731430041, 0.0 ], [ 109.319749082654084, -7.118785660429864, 0.0 ], [ 109.319737661264128, -7.118749492395125, 0.0 ], [ 109.319737661264128, -7.118711421394949, 0.0 ], [ 109.319743371959134, -7.118680964055216, 0.0 ], [ 109.319770021569298, -7.118658121275246, 0.0 ], [ 109.31982712941857, -7.118633374630463, 0.0 ], [ 109.31989565775848, -7.118610532749813, 0.0 ], [ 109.319933728758656, -7.118612435715306, 0.0 ], [ 109.319969896793339, -7.118644796919796, 0.0 ], [ 109.320017486218092, -7.118658121275246, 0.0 ], [ 109.320058280365402, -7.118635366628837, 0.0 ], [ 109.320116471897734, -7.118602918190049, 0.0 ], [ 109.320160253592917, -7.118576267680567, 0.0 ], [ 109.320177011559906, -7.118576267680567, 0.0 ], [ 109.320244011052353, -7.118578171545323, 0.0 ], [ 109.320285888882722, -7.118568654020123, 0.0 ], [ 109.320320153052705, -7.118543906476077, 0.0 ], [ 109.320350610392438, -7.118507739340657, 0.0 ], [ 109.320392489122128, -7.118469667441161, 0.0 ], [ 109.320403910512141, -7.118443017830941, 0.0 ], [ 109.320415331002778, -7.118401140000572, 0.0 ], [ 109.320421041697784, -7.118361164236319, 0.0 ], [ 109.320449595172761, -7.118344032151299, 0.0 ], [ 109.320497184597457, -7.118324996201579, 0.0 ], [ 109.320548580852403, -7.118326900066336, 0.0 ], [ 109.320630315736537, -7.118366875830588, 0.0 ], [ 109.320677905161233, -7.118374013749701, 0.0 ], [ 109.320723114080522, -7.118357357406069, 0.0 ], [ 109.320768324798394, -7.118328803931092, 0.0 ], [ 109.320799256980195, -7.11828359411254, 0.0 ], [ 109.320839708485835, -7.118238384293932, 0.0 ], [ 109.320889677516675, -7.118226487162588, 0.0 ], [ 109.320975337941547, -7.11823362598102, 0.0 ], [ 109.32106099836642, -7.118221727950356, 0.0 ], [ 109.321130002447717, -7.118190795768555, 0.0 ], [ 109.321179971478557, -7.118150344262915, 0.0 ], [ 109.321239458034597, -7.118100375232075, 0.0 ], [ 109.321263252297342, -7.118057545019667, 0.0 ], [ 109.321268011509574, -7.117845772664225, 0.0 ], [ 109.321453609996183, -7.117786287007505, 0.0 ], [ 109.321524992784248, -7.117736317976664, 0.0 ], [ 109.321667761058393, -7.1176934877642, 0.0 ], [ 109.321860496564739, -7.117667312996048, 0.0 ], [ 109.321884266545737, -7.117646286846593, 0.0 ], [ 109.321922363626243, -7.117612585652239, 0.0 ], [ 109.321915224807867, -7.117581653470495, 0.0 ], [ 109.321893810151266, -7.117555478702343, 0.0 ], [ 109.321870015888578, -7.117524546520542, 0.0 ], [ 109.321848600332714, -7.11747933670199, 0.0 ], [ 109.321843841120426, -7.117422228852718, 0.0 ], [ 109.321822426463882, -7.11732942960947, 0.0 ], [ 109.32181528674613, -7.117258045922028, 0.0 ], [ 109.321803390514106, -7.117189042740108, 0.0 ], [ 109.321791493382761, -7.11712479607246, 0.0 ], [ 109.321767699120073, -7.117084346365459, 0.0 ], [ 109.321720108796058, -7.117060551203451, 0.0 ], [ 109.321667761058393, -7.117029618122331, 0.0 ], [ 109.321615412421409, -7.116984408303779, 0.0 ], [ 109.321570202602857, -7.116958234434946, 0.0 ], [ 109.321522613178104, -7.116910645010194, 0.0 ], [ 109.321486921784071, -7.116860675979353, 0.0 ], [ 109.321429576513822, -7.116812532572283, 0.0 ], [ 109.321408757208417, -7.11677089126357, 0.0 ], [ 109.321405782251134, -7.116723302738194, 0.0 ], [ 109.321408756309097, -7.116660841224814, 0.0 ], [ 109.321441473645166, -7.116628123888745, 0.0 ], [ 109.321492037127882, -7.116610277742097, 0.0 ], [ 109.321533678436595, -7.116616226757401, 0.0 ], [ 109.321625882328647, -7.116616225858081, 0.0 ], [ 109.321679419869383, -7.116610277742097, 0.0 ], [ 109.3217389073248, -7.116592431595393, 0.0 ], [ 109.321866803510261, -7.116518073849988, 0.0 ], [ 109.321929263225002, -7.116503201761304, 0.0 ], [ 109.322006596827066, -7.116437766189904, 0.0 ], [ 109.322095825761835, -7.116402074795872, 0.0 ], [ 109.322143415186531, -7.116405048853892, 0.0 ], [ 109.32222967006328, -7.116378280533183, 0.0 ], [ 109.322309976824044, -7.116357460328459, 0.0 ], [ 109.322381361410748, -7.116321768035107, 0.0 ], [ 109.322506282638869, -7.116280127625714, 0.0 ], [ 109.322530077800934, -7.116247410289702, 0.0 ], [ 109.322565769194966, -7.116217667011654, 0.0 ], [ 109.322622281692986, -7.116199820865006, 0.0 ], [ 109.322842381770556, -7.116241462173718, 0.0 ], [ 109.322900265734745, -7.116244000959853, 0.0 ], [ 109.322929547660578, -7.116245285191724, 0.0 ], [ 109.32294997755946, -7.116246180916448, 0.0 ], [ 109.322966039451217, -7.116240231901145, 0.0 ], [ 109.323050708823189, -7.116225242001292, 0.0 ], [ 109.323111622603335, -7.116238566356685, 0.0 ], [ 109.323153501333081, -7.116215723576715, 0.0 ], [ 109.323178247977808, -7.116181459406789, 0.0 ], [ 109.323182054808058, -7.116139581576363, 0.0 ], [ 109.323174440248295, -7.116095798981917, 0.0 ], [ 109.323166826587851, -7.116048209557164, 0.0 ], [ 109.323149693603511, -7.116000620132468, 0.0 ], [ 109.323124947858105, -7.115977777352498, 0.0 ], [ 109.323090683688179, -7.115941610217078, 0.0 ], [ 109.323071647738402, -7.115895924657138, 0.0 ], [ 109.323052611788682, -7.115873080977849, 0.0 ], [ 109.323027866043219, -7.115823588587716, 0.0 ], [ 109.323018347618699, -7.115775999162963, 0.0 ], [ 109.323008830992819, -7.115732217467837, 0.0 ], [ 109.323022155348269, -7.115699856263291, 0.0 ], [ 109.323058323382952, -7.115667495958121, 0.0 ], [ 109.323104960425667, -7.115643106344237, 0.0 ], [ 109.323132086676537, -7.115621690788373, 0.0 ], [ 109.323157784803982, -7.115578860575908, 0.0 ], [ 109.323173488765576, -7.115518898278481, 0.0 ], [ 109.323187765503064, -7.115473212718541, 0.0 ], [ 109.323190620850539, -7.11544180389609, 0.0 ], [ 109.323174916888945, -7.115447514591096, 0.0 ], [ 109.323147790638075, -7.115444659243565, 0.0 ], [ 109.323129230429686, -7.115437521324509, 0.0 ], [ 109.323117809039729, -7.11541896111612, 0.0 ], [ 109.323104959526347, -7.115380414374556, 0.0 ], [ 109.323093539035654, -7.115360426042798, 0.0 ], [ 109.323077834174796, -7.115357571594586, 0.0 ], [ 109.323045830900412, -7.115365363320791, 0.0 ], [ 109.323001573463898, -7.115356798177629, 0.0 ], [ 109.322970163742127, -7.115335382621765, 0.0 ], [ 109.322958742352114, -7.11531111171837, 0.0 ], [ 109.322961597699646, -7.115096959756841, 0.0 ], [ 109.322929468520215, -7.11496398869707, 0.0 ], [ 109.323442699920747, -7.114951399987092, 0.0 ], [ 109.323936780258236, -7.114721510789025, 0.0 ], [ 109.324220500176011, -7.114589500205227, 0.0 ], [ 109.325041299716247, -7.114174300303659, 0.0 ], [ 109.32582989993, -7.113913399783542, 0.0 ], [ 109.32610339995199, -7.114073099593838, 0.0 ], [ 109.326328699909652, -7.114355199832573, 0.0 ], [ 109.326210699863964, -7.114482999790539, 0.0 ], [ 109.326060499592415, -7.114525599776584, 0.0 ], [ 109.326039100224364, -7.11472789957287, 0.0 ], [ 109.325931800312389, -7.114887600282486, 0.0 ], [ 109.326039100224364, -7.115127099635913, 0.0 ], [ 109.326071299550904, -7.115334700036328, 0.0 ], [ 109.32616249979958, -7.115510399685149, 0.0 ], [ 109.326344799572894, -7.115372000317507, 0.0 ], [ 109.326548700162448, -7.11554760014161, 0.0 ], [ 109.326827599714022, -7.115558300275268, 0.0 ], [ 109.326787473762977, -7.115952656589798, 0.0 ], [ 109.326816899580308, -7.116393999783213, 0.0 ] ], [ [ 109.324394250094599, -7.118330857083322, 0.0 ], [ 109.324318107194927, -7.11854976735782, 0.0 ], [ 109.323775590271339, -7.118502177933124, 0.0 ], [ 109.323775590271339, -7.119368301505858, 0.0 ], [ 109.323708965796186, -7.119320712980482, 0.0 ], [ 109.323423430147272, -7.119225534131033, 0.0 ], [ 109.323233073347694, -7.119225534131033, 0.0 ], [ 109.322719109899083, -7.119492033830227, 0.0 ], [ 109.322566824099738, -7.119377819930378, 0.0 ], [ 109.322338396299983, -7.119558659204699, 0.0 ], [ 109.322319360350264, -7.119872747429326, 0.0 ], [ 109.32237646730016, -7.120053586703591, 0.0 ], [ 109.322538270624761, -7.120377193352738, 0.0 ], [ 109.323071270023149, -7.120301050453065, 0.0 ], [ 109.323033198123653, -7.120005997278895, 0.0 ], [ 109.323137894498302, -7.119768051054677, 0.0 ], [ 109.3233568047728, -7.119749016004221, 0.0 ], [ 109.323766072746139, -7.119701426579525, 0.0 ], [ 109.324070643445509, -7.119653837154829, 0.0 ], [ 109.324498946469248, -7.119273123555786, 0.0 ], [ 109.324889178492867, -7.118378446508075, 0.0 ], [ 109.324592638739375, -7.118313351779705, 0.0 ], [ 109.324394250094599, -7.118330857083322, 0.0 ] ] ] ] } },
{ "type": "Feature", "properties": { "OBJECTID_1": 30, "Shape_Leng": 0.04758602391, "Shape_Area": 3.634762e-05, "Keterangan": "Kelompok Tani Kedung Belis", "KT": null }, "geometry": { "type": "MultiPolygon", "coordinates": [ [ [ [ 109.332051024934913, -7.115822133484642, 0.0 ], [ 109.331850700049813, -7.115775500039263, 0.0 ], [ 109.3315248001295, -7.115599800390441, 0.0 ], [ 109.331140300384618, -7.115655200427113, 0.0 ], [ 109.330808699661816, -7.115577200427424, 0.0 ], [ 109.33042910032276, -7.115686299882782, 0.0 ], [ 109.330143499922656, -7.115708899845799, 0.0 ], [ 109.329806899868572, -7.11557980036747, 0.0 ], [ 109.329365599842617, -7.115661000155001, 0.0 ], [ 109.328763500135494, -7.115679599933571, 0.0 ], [ 109.328279399574683, -7.115638400191983, 0.0 ], [ 109.328201600123805, -7.115522599888038, 0.0 ], [ 109.327996400013888, -7.115456100418669, 0.0 ], [ 109.327607499886255, -7.11516999999543, 0.0 ], [ 109.327091399648452, -7.114806000296653, 0.0 ], [ 109.326328699909652, -7.114355199832573, 0.0 ], [ 109.32610339995199, -7.114073099593838, 0.0 ], [ 109.32582989993, -7.113913399783542, 0.0 ], [ 109.325041299716247, -7.114174300303659, 0.0 ], [ 109.324220500176011, -7.114589500205227, 0.0 ], [ 109.32410798239755, -7.114333815752957, 0.0 ], [ 109.324519200101065, -7.114184299865485, 0.0 ], [ 109.324760599721969, -7.114053899967473, 0.0 ], [ 109.324992399979351, -7.113682200273274, 0.0 ], [ 109.324928100251668, -7.11302220041415, 0.0 ], [ 109.325067999688486, -7.11300449995764, 0.0 ], [ 109.325113599812823, -7.112860799985867, 0.0 ], [ 109.325081399586963, -7.112706399880381, 0.0 ], [ 109.325172599835696, -7.112663799894392, 0.0 ], [ 109.325191400163021, -7.112589300056129, 0.0 ], [ 109.32507340011739, -7.112584000351262, 0.0 ], [ 109.325108300108013, -7.112368399581953, 0.0 ], [ 109.325145800038683, -7.112202599670184, 0.0 ], [ 109.32531739967834, -7.112090799550685, 0.0 ], [ 109.325473000378736, -7.112058799873694, 0.0 ], [ 109.325505199705276, -7.112136000376097, 0.0 ], [ 109.325588299760284, -7.112122700302336, 0.0 ], [ 109.325671499640066, -7.112106699564492, 0.0 ], [ 109.325620499986144, -7.112005599578708, 0.0 ], [ 109.325922200049547, -7.111833499916031, 0.0 ], [ 109.326217299988457, -7.111689700119541, 0.0 ], [ 109.326351399697387, -7.111745600179233, 0.0 ], [ 109.326472100407159, -7.111854699634648, 0.0 ], [ 109.326815400410453, -7.111809499708613, 0.0 ], [ 109.326919100336283, -7.111548500263041, 0.0 ], [ 109.327418000140653, -7.111436700143543, 0.0 ], [ 109.327391200343698, -7.111261100319496, 0.0 ], [ 109.327605800167589, -7.111154599904808, 0.0 ], [ 109.327713100079563, -7.111649700073542, 0.0 ], [ 109.327713100079563, -7.11177740020679, 0.0 ], [ 109.327863300351112, -7.111750800059326, 0.0 ], [ 109.327879400014353, -7.111484699659115, 0.0 ], [ 109.327962699718853, -7.111567000216837, 0.0 ], [ 109.328021699741726, -7.111534999640469, 0.0 ], [ 109.32839719997088, -7.111622799552492, 0.0 ], [ 109.328485800279509, -7.111630799921443, 0.0 ], [ 109.32849379974914, -7.111737300336074, 0.0 ], [ 109.328590400426719, -7.111726700027134, 0.0 ], [ 109.328595399757944, -7.111425499986808, 0.0 ], [ 109.328852899941467, -7.111452100134272, 0.0 ], [ 109.328960199853384, -7.111518599603642, 0.0 ], [ 109.32922039980167, -7.111899199888114, 0.0 ], [ 109.32925260002753, -7.112088199610696, 0.0 ], [ 109.329412200013053, -7.112250000237282, 0.0 ], [ 109.329937899614436, -7.112343099854115, 0.0 ], [ 109.33047440007357, -7.112401699678628, 0.0 ], [ 109.330538699801195, -7.112199399882343, 0.0 ], [ 109.330729199592952, -7.111997100086057, 0.0 ], [ 109.330887400233394, -7.111880000261749, 0.0 ], [ 109.330998399956229, -7.111824799874569, 0.0 ], [ 109.331231700282785, -7.111603900299713, 0.0 ], [ 109.331389999848682, -7.111372299691823, 0.0 ], [ 109.331426800106783, -7.111134599881836, 0.0 ], [ 109.331598736992191, -7.11120979309743, 0.0 ], [ 109.332093699564666, -7.111292500148693, 0.0 ], [ 109.332109800127228, -7.110999699776301, 0.0 ], [ 109.33217409985491, -7.110834700261137, 0.0 ], [ 109.332278700002064, -7.110853300039707, 0.0 ], [ 109.332276100062018, -7.110935800246921, 0.0 ], [ 109.332606000166834, -7.111010399909958, 0.0 ], [ 109.332616700300548, -7.110893300085706, 0.0 ], [ 109.332699800355556, -7.110871999642995, 0.0 ], [ 109.332839546907621, -7.110931396266892, 0.0 ], [ 109.33296327833267, -7.110702967567875, 0.0 ], [ 109.333177430294256, -7.11067917330513, 0.0 ], [ 109.333410617306185, -7.110583994455737, 0.0 ], [ 109.333653321843371, -7.110417432818224, 0.0 ], [ 109.333853197067469, -7.110303218019055, 0.0 ], [ 109.333851610663373, -7.110993262429076, 0.0 ], [ 109.333905213854621, -7.111136153010989, 0.0 ], [ 109.334163320181119, -7.110949791, 0.0 ], [ 109.33407789987524, -7.111182899770938, 0.0 ], [ 109.334040300119796, -7.111640599833777, 0.0 ], [ 109.334074090347031, -7.111704080279026, 0.0 ], [ 109.334513100699098, -7.111750479900707, 0.0 ], [ 109.334752236726388, -7.111764756638138, 0.0 ], [ 109.335199574800583, -7.112368188241248, 0.0 ], [ 109.335418485974401, -7.112491919666297, 0.0 ], [ 109.335808717098701, -7.112482402141097, 0.0 ], [ 109.336403582659273, -7.112572821778258, 0.0 ], [ 109.336881853814589, -7.112679897759051, 0.0 ], [ 109.337324433575816, -7.1127941116589, 0.0 ], [ 109.337548664239534, -7.112841122819532, 0.0 ], [ 109.337372584177501, -7.112969614356189, 0.0 ], [ 109.337358307440013, -7.113102864205757, 0.0 ], [ 109.337186985690892, -7.113117140943245, 0.0 ], [ 109.336834825566825, -7.113245631580583, 0.0 ], [ 109.336373210755141, -7.11347405938028, 0.0 ], [ 109.335902077518938, -7.113631104391914, 0.0 ], [ 109.335622252564974, -7.113939481921534, 0.0 ], [ 109.335279609966108, -7.11430116047012, 0.0 ], [ 109.3348560661546, -7.114567660169314, 0.0 ], [ 109.334575289717918, -7.114543865007306, 0.0 ], [ 109.334028013582042, -7.114715186756428, 0.0 ], [ 109.333849553913865, -7.114919820293437, 0.0 ], [ 109.333593761542943, -7.115068536683566, 0.0 ], [ 109.333278483515244, -7.115336226185832, 0.0 ], [ 109.332981050734986, -7.115746683062923, 0.0 ], [ 109.332662099876075, -7.115462699643842, 0.0 ], [ 109.332495799941285, -7.115531899777295, 0.0 ], [ 109.332433774599053, -7.115502787823345, 0.0 ], [ 109.332201777390196, -7.115336226185832, 0.0 ], [ 109.331922190756586, -7.115246996351743, 0.0 ], [ 109.331803217644449, -7.11508638283027, 0.0 ], [ 109.331708038795, -7.115110177092959, 0.0 ], [ 109.331874601331833, -7.115544429132058, 0.0 ], [ 109.332051024934913, -7.115822133484642, 0.0 ] ], [ [ 109.330689709462604, -7.114073882003993, 0.0 ], [ 109.330661155987627, -7.113966806922576, 0.0 ], [ 109.330568356744323, -7.113981083660008, 0.0 ], [ 109.330447004026098, -7.113952529285768, 0.0 ], [ 109.330389897076145, -7.114081020822425, 0.0 ], [ 109.330305589231614, -7.114238394985875, 0.0 ], [ 109.330454142844474, -7.114445078077836, 0.0 ], [ 109.330646879250139, -7.114409385784484, 0.0 ], [ 109.330703986200092, -7.114295171884635, 0.0 ], [ 109.330646879250139, -7.114130988953946, 0.0 ], [ 109.330689709462604, -7.114073882003993, 0.0 ] ], [ [ 109.331942892250765, -7.113035644379465, 0.0 ], [ 109.331999999200661, -7.112930948004816, 0.0 ], [ 109.332214150262871, -7.112949983055216, 0.0 ], [ 109.332195115212471, -7.112845287579887, 0.0 ], [ 109.332256980475336, -7.112783421417703, 0.0 ], [ 109.332471132436865, -7.11271679604323, 0.0 ], [ 109.332628176549179, -7.112683484255342, 0.0 ], [ 109.332728113711539, -7.112564511143205, 0.0 ], [ 109.333051720360686, -7.112593064618181, 0.0 ], [ 109.333089792260182, -7.11240270781866, 0.0 ], [ 109.333180211897343, -7.112388431081172, 0.0 ], [ 109.333261113109927, -7.112269457969091, 0.0 ], [ 109.333451469909448, -7.112250422019315, 0.0 ], [ 109.333456229121737, -7.112131448907178, 0.0 ], [ 109.333522853596889, -7.11210765464449, 0.0 ], [ 109.333552596874881, -7.112008906385881, 0.0 ], [ 109.333390814234747, -7.111629324133958, 0.0 ], [ 109.332860799686216, -7.11153470016626, 0.0 ], [ 109.33279909989858, -7.111808800036044, 0.0 ], [ 109.33264080033274, -7.11178219988858, 0.0 ], [ 109.332565120583922, -7.112039839466945, 0.0 ], [ 109.332389040521889, -7.112092188103929, 0.0 ], [ 109.332208202146887, -7.112087428891698, 0.0 ], [ 109.332198683722311, -7.112268268166019, 0.0 ], [ 109.331875077073221, -7.11236820532838, 0.0 ], [ 109.331608577374027, -7.112406276328556, 0.0 ], [ 109.331522916949098, -7.112282544903451, 0.0 ], [ 109.33117551603732, -7.112301579953908, 0.0 ], [ 109.330838280162538, -7.11245244842172, 0.0 ], [ 109.330924482878629, -7.112564511143205, 0.0 ], [ 109.331095803728431, -7.112669207517854, 0.0 ], [ 109.331190982577823, -7.112826251630167, 0.0 ], [ 109.331138633940839, -7.113030885167177, 0.0 ], [ 109.331224294365768, -7.112969019004993, 0.0 ], [ 109.331314714002929, -7.112930948004816, 0.0 ], [ 109.331362303427625, -7.113049921116897, 0.0 ], [ 109.331481276539762, -7.113064197854385, 0.0 ], [ 109.331942892250765, -7.113035644379465, 0.0 ] ] ] ] } },
{ "type": "Feature", "properties": { "OBJECTID_1": 32, "Shape_Leng": 0.03908078216, "Shape_Area": 1.9036e-05, "Keterangan": "Kelompok Tani Telang", "KT": null }, "geometry": { "type": "MultiPolygon", "coordinates": [ [ [ [ 109.311143068897593, -7.108897922101391, 0.0 ], [ 109.311335998657455, -7.10858900138129, 0.0 ], [ 109.311357909739797, -7.108569284644716, 0.0 ], [ 109.311387335557129, -7.108505241223838, 0.0 ], [ 109.311644317731123, -7.108115009200276, 0.0 ], [ 109.311910816530997, -7.107848510400402, 0.0 ], [ 109.312215389029063, -7.10767718775196, 0.0 ], [ 109.312700798103435, -7.107620080802064, 0.0 ], [ 109.313814385425587, -7.107800920975649, 0.0 ], [ 109.314242688449383, -7.107858027026282, 0.0 ], [ 109.314680509897698, -7.107791401651809, 0.0 ], [ 109.314918456121916, -7.107829474450625, 0.0 ], [ 109.315261097821462, -7.107972241825451, 0.0 ], [ 109.315641811420505, -7.108134045149995, 0.0 ], [ 109.315889276069299, -7.108143562675252, 0.0 ], [ 109.316203365193189, -7.108048383825803, 0.0 ], [ 109.316509999836683, -7.10775299970112, 0.0 ], [ 109.316656001173556, -7.107702000047198, 0.0 ], [ 109.316955274866075, -7.107648635176304, 0.0 ], [ 109.317202738615549, -7.107743814025753, 0.0 ], [ 109.317600998887031, -7.107955000023196, 0.0 ], [ 109.318223999737882, -7.107984999607993, 0.0 ], [ 109.318281340511533, -7.107982495895442, 0.0 ], [ 109.318461090706819, -7.108025636373952, 0.0 ], [ 109.318639550374996, -7.108037532605977, 0.0 ], [ 109.318948881185975, -7.108067275884025, 0.0 ], [ 109.319228466920265, -7.108037534404616, 0.0 ], [ 109.319670153654727, -7.10795573926589, 0.0 ], [ 109.31993040756231, -7.107918560393216, 0.0 ], [ 109.320204046979256, -7.10793045842388, 0.0 ], [ 109.320666780547526, -7.108048962989187, 0.0 ], [ 109.320689000097332, -7.108050999953662, 0.0 ], [ 109.321637999793893, -7.108238001382631, 0.0 ], [ 109.321935000000337, -7.108197000391215, 0.0 ], [ 109.322261999791522, -7.108126999861099, 0.0 ], [ 109.32243199953723, -7.108014000046012, 0.0 ], [ 109.322603000228355, -7.107774999816343, 0.0 ], [ 109.322943999765812, -7.107365999840965, 0.0 ], [ 109.323057999627054, -7.107167998804073, 0.0 ], [ 109.323303676423564, -7.107039491978924, 0.0 ], [ 109.323541622647838, -7.107020456928524, 0.0 ], [ 109.323766999947168, -7.107071999772927, 0.0 ], [ 109.32412899865443, -7.107109999726674, 0.0 ], [ 109.324483998837536, -7.107053999842151, 0.0 ], [ 109.324486384738918, -7.107052272244516, 0.0 ], [ 109.324594151399026, -7.107038160082993, 0.0 ], [ 109.324855892785308, -7.106847803283472, 0.0 ], [ 109.324974865897389, -7.106746676318039, 0.0 ], [ 109.325081940978862, -7.106627703205902, 0.0 ], [ 109.325087889994165, -7.106532524356453, 0.0 ], [ 109.325049395413316, -7.106413542251119, 0.0 ], [ 109.325050342399436, -7.10641175979481, 0.0 ], [ 109.32504624868551, -7.106342166657612, 0.0 ], [ 109.325016507206101, -7.106187502151442, 0.0 ], [ 109.325032222858852, -7.106135116642292, 0.0 ], [ 109.325167716516944, -7.106243257420374, 0.0 ], [ 109.3252852003518, -7.106350700324526, 0.0 ], [ 109.325507799645322, -7.10644379994136, 0.0 ], [ 109.325666100110482, -7.106552900296037, 0.0 ], [ 109.325708100248676, -7.106585399996163, 0.0 ], [ 109.324968700145462, -7.107308800260853, 0.0 ], [ 109.324233800249715, -7.107926299958706, 0.0 ], [ 109.323492163532592, -7.108368996631839, 0.0 ], [ 109.322857799747737, -7.108648299978995, 0.0 ], [ 109.322804200153769, -7.108687600352425, 0.0 ], [ 109.322884600444013, -7.108895199853521, 0.0 ], [ 109.323131399594502, -7.109640399684679, 0.0 ], [ 109.323203800415115, -7.109879899937368, 0.0 ], [ 109.323142099728159, -7.110127500383783, 0.0 ], [ 109.322962700268477, -7.110202799719389, 0.0 ], [ 109.322680799679233, -7.110241900443327, 0.0 ], [ 109.322458400035202, -7.110138900190066, 0.0 ], [ 109.322439400058329, -7.110377699870924, 0.0 ], [ 109.322312799795952, -7.110375599953954, 0.0 ], [ 109.322182399897883, -7.110189399820911, 0.0 ], [ 109.321977199788023, -7.110196099770121, 0.0 ], [ 109.321908800051119, -7.110117599747412, 0.0 ], [ 109.321975800442885, -7.109943199618897, 0.0 ], [ 109.321875599779162, -7.109800399868504, 0.0 ], [ 109.321829999654824, -7.109683300044196, 0.0 ], [ 109.321655499701592, -7.10953779962972, 0.0 ], [ 109.321561800236964, -7.109302599935006, 0.0 ], [ 109.32097420029919, -7.109654900353348, 0.0 ], [ 109.320062499984431, -7.110186299857787, 0.0 ], [ 109.319983300289152, -7.110078200448527, 0.0 ], [ 109.31976070009631, -7.110187399728659, 0.0 ], [ 109.319590399977017, -7.110053200195011, 0.0 ], [ 109.319232299830844, -7.110000999946124, 0.0 ], [ 109.319051299577893, -7.109999999900026, 0.0 ], [ 109.318953699753479, -7.110079800342476, 0.0 ], [ 109.318825999620231, -7.110119800388418, 0.0 ], [ 109.318807200192168, -7.110274099769867, 0.0 ], [ 109.318791099629607, -7.110614799833115, 0.0 ], [ 109.318737500035638, -7.110795800086066, 0.0 ], [ 109.31866500028957, -7.110862299555436, 0.0 ], [ 109.318383400073913, -7.110979400279064, 0.0 ], [ 109.318246599700899, -7.110955499896363, 0.0 ], [ 109.318254675612877, -7.110832723551312, 0.0 ], [ 109.318445032412399, -7.110791083141919, 0.0 ], [ 109.318581851671183, -7.11070185330783, 0.0 ], [ 109.318587800686487, -7.110523393639653, 0.0 ], [ 109.318439084296358, -7.110452009952269, 0.0 ], [ 109.318284418890869, -7.110493650361605, 0.0 ], [ 109.318129754384699, -7.110505548392325, 0.0 ], [ 109.317998884141275, -7.110404420527516, 0.0 ], [ 109.317981037994571, -7.110231909874699, 0.0 ], [ 109.318010781272619, -7.110101039631218, 0.0 ], [ 109.317143269146641, -7.10989035815345, 0.0 ], [ 109.316819700269036, -7.109885500015764, 0.0 ], [ 109.316667377597469, -7.109658360944536, 0.0 ], [ 109.31663763431942, -7.109462055129711, 0.0 ], [ 109.316607891041372, -7.109354979148918, 0.0 ], [ 109.316190889797781, -7.10904564923726, 0.0 ], [ 109.315894600055799, -7.108919999558282, 0.0 ], [ 109.315519000001927, -7.108738299632762, 0.0 ], [ 109.314961100174685, -7.10837630002618, 0.0 ], [ 109.314763213351682, -7.108624485031896, 0.0 ], [ 109.314434847490304, -7.10854596252608, 0.0 ], [ 109.314434423909574, -7.10834642454779, 0.0 ], [ 109.314413432833703, -7.108131936239829, 0.0 ], [ 109.313835223616763, -7.107903508440131, 0.0 ], [ 109.313385505936424, -7.107960615390027, 0.0 ], [ 109.312978617569229, -7.108139075058205, 0.0 ], [ 109.312702917805495, -7.10829564342913, 0.0 ], [ 109.312512561005974, -7.108571660653581, 0.0 ], [ 109.312312685781876, -7.108619250078277, 0.0 ], [ 109.312065222032459, -7.108581179078101, 0.0 ], [ 109.311808239858465, -7.108800089352599, 0.0 ], [ 109.31156077610899, -7.108952374252624, 0.0 ], [ 109.311313312359516, -7.10899044615212, 0.0 ], [ 109.311143068897593, -7.108897922101391, 0.0 ] ] ] ] } },
{ "type": "Feature", "properties": { "OBJECTID_1": 33, "Shape_Leng": 0.02694801867, "Shape_Area": 2.057029e-05, "Keterangan": "Kelompok Tani Gunung", "KT": null }, "geometry": { "type": "MultiPolygon", "coordinates": [ [ [ [ 109.32207629800007, -7.113127094999925, 0.0 ], [ 109.321983915000033, -7.113128687999961, 0.0 ], [ 109.322082269000077, -7.112904776999926, 0.0 ], [ 109.322129836000045, -7.112809640999956, 0.0 ], [ 109.322138769000048, -7.112791774999948, 0.0 ], [ 109.322130399000059, -7.11269342199995, 0.0 ], [ 109.322129836000045, -7.112693099999944, 0.0 ], [ 109.321973452000066, -7.11260343899994, 0.0 ], [ 109.321923229000049, -7.112565771999925, 0.0 ], [ 109.321852080000042, -7.112565771999925, 0.0 ], [ 109.321695307000084, -7.112530051999954, 0.0 ], [ 109.321584224000048, -7.112500900999976, 0.0 ], [ 109.321496334000074, -7.112496715999953, 0.0 ], [ 109.321460759000047, -7.112559493999981, 0.0 ], [ 109.321421, -7.112557401999936, 0.0 ], [ 109.32138961000004, -7.112526011999933, 0.0 ], [ 109.321328924000056, -7.112530197999945, 0.0 ], [ 109.321305905000088, -7.112601346999952, 0.0 ], [ 109.321295442000064, -7.112615994999942, 0.0 ], [ 109.32126405300005, -7.112668310999936, 0.0 ], [ 109.321234756000081, -7.112737366999966, 0.0 ], [ 109.321230571000058, -7.112802238999961, 0.0 ], [ 109.321236849000059, -7.11280433099995, 0.0 ], [ 109.321140588000048, -7.112860831999967, 0.0 ], [ 109.321100828000056, -7.112867109999968, 0.0 ], [ 109.321073624000064, -7.112885942999981, 0.0 ], [ 109.321081995000043, -7.112950814999977, 0.0 ], [ 109.320968993000065, -7.112990574999969, 0.0 ], [ 109.320950159000063, -7.113030333999973, 0.0 ], [ 109.320911288000048, -7.113023380999948, 0.0 ], [ 109.320934157000067, -7.113085453999929, 0.0 ], [ 109.320856824000089, -7.11321632399995, 0.0 ], [ 109.320708108000076, -7.113311502999977, 0.0 ], [ 109.320529648000047, -7.113370989999964, 0.0 ], [ 109.320470162000049, -7.113525653999943, 0.0 ], [ 109.320482060000074, -7.113769548999926, 0.0 ], [ 109.32066646800007, -7.113942059999943, 0.0 ], [ 109.32087467100007, -7.113888521999968, 0.0 ], [ 109.321160206000059, -7.113870676999966, 0.0 ], [ 109.321368408000069, -7.113924213999951, 0.0 ], [ 109.321540920000075, -7.113983700999938, 0.0 ], [ 109.321540920000075, -7.114203800999974, 0.0 ], [ 109.321536983000044, -7.114394379999965, 0.0 ], [ 109.32140324900007, -7.114450460999933, 0.0 ], [ 109.321167682000066, -7.114528982999957, 0.0 ], [ 109.320946393000042, -7.114578951999931, 0.0 ], [ 109.320746518000078, -7.114650335999954, 0.0 ], [ 109.320589473000041, -7.114778825999963, 0.0 ], [ 109.320425291000049, -7.114878763999968, 0.0 ], [ 109.320346768000036, -7.115014392999967, 0.0 ], [ 109.320361045000084, -7.115164298999957, 0.0 ], [ 109.320283951000079, -7.115316425999936, 0.0 ], [ 109.320194721000064, -7.11540565599995, 0.0 ], [ 109.320010313000068, -7.115477038999927, 0.0 ], [ 109.319766418000086, -7.115572217999954, 0.0 ], [ 109.319546317000061, -7.115607909999937, 0.0 ], [ 109.319350012000086, -7.115697138999963, 0.0 ], [ 109.319236988000057, -7.115810163999981, 0.0 ], [ 109.319089085000087, -7.115898105999975, 0.0 ], [ 109.319016887000089, -7.115941034999935, 0.0 ], [ 109.318883987000049, -7.11599349599993, 0.0 ], [ 109.318582636000087, -7.116101647999926, 0.0 ], [ 109.31848745800005, -7.116274159999932, 0.0 ], [ 109.318338742000037, -7.116422875999945, 0.0 ], [ 109.318160282000065, -7.116500207999934, 0.0 ], [ 109.317904490000046, -7.116607282999951, 0.0 ], [ 109.317726030000074, -7.116690564999942, 0.0 ], [ 109.317462912000053, -7.116853164999952, 0.0 ], [ 109.316997717000049, -7.117136713999969, 0.0 ], [ 109.316797842000085, -7.11710815999993, 0.0 ], [ 109.31660583200005, -7.117225, 0.0 ], [ 109.316169664000086, -7.117043914999954, 0.0 ], [ 109.316041174000077, -7.11696539199994, 0.0 ], [ 109.315948375000062, -7.116786932999958, 0.0 ], [ 109.315903759000037, -7.116595980999932, 0.0 ], [ 109.315853791000052, -7.116524597999955, 0.0 ], [ 109.31583237600006, -7.116367552999975, 0.0 ], [ 109.31583237600006, -7.11627475399996, 0.0 ], [ 109.315760992000037, -7.116224784999929, 0.0 ], [ 109.315646778000087, -7.116142693999961, 0.0 ], [ 109.315514718000088, -7.116142693999961, 0.0 ], [ 109.315429057000074, -7.116156970999953, 0.0 ], [ 109.31535053500005, -7.11613198699996, 0.0 ], [ 109.315279151000084, -7.11608558599994, 0.0 ], [ 109.315221449000035, -7.116023839999968, 0.0 ], [ 109.315224423000075, -7.115964352999981, 0.0 ], [ 109.315304730000037, -7.115776969999956, 0.0 ], [ 109.315353713000036, -7.115643028999955, 0.0 ], [ 109.315396155000087, -7.115504382999973, 0.0 ], [ 109.315469723000035, -7.115371397999979, 0.0 ], [ 109.315546119000032, -7.115252558999941, 0.0 ], [ 109.315571584000054, -7.115195967999966, 0.0 ], [ 109.31561713800005, -7.115128397999968, 0.0 ], [ 109.315636174000076, -7.11506891199997, 0.0 ], [ 109.31567900400006, -7.114938040999959, 0.0 ], [ 109.315669485000058, -7.114880933999927, 0.0 ], [ 109.315657311000052, -7.114870314999962, 0.0 ], [ 109.315932100000055, -7.114762499999927, 0.0 ], [ 109.316437827000073, -7.114591115999929, 0.0 ], [ 109.316868247000059, -7.114443952999977, 0.0 ], [ 109.317079192000051, -7.114326550999976, 0.0 ], [ 109.317412112000056, -7.114109113999973, 0.0 ], [ 109.31776670000005, -7.114006599999925, 0.0 ], [ 109.318056400000046, -7.113793699999974, 0.0 ], [ 109.318163700000071, -7.113559399999929, 0.0 ], [ 109.318099300000085, -7.113293299999953, 0.0 ], [ 109.317863200000033, -7.113080399999944, 0.0 ], [ 109.317745200000047, -7.112792899999931, 0.0 ], [ 109.317916900000057, -7.112633199999948, 0.0 ], [ 109.318197545000089, -7.112711583999953, 0.0 ], [ 109.318367500000079, -7.112739699999963, 0.0 ], [ 109.318602400000088, -7.112437899999975, 0.0 ], [ 109.318833100000063, -7.112209, 0.0 ], [ 109.319117400000039, -7.11177779999997, 0.0 ], [ 109.319358800000089, -7.111921499999937, 0.0 ], [ 109.319630700000062, -7.111537599999963, 0.0 ], [ 109.31982110000007, -7.111582899999974, 0.0 ], [ 109.319869400000073, -7.111404499999935, 0.0 ], [ 109.320009, -7.111376899999925, 0.0 ], [ 109.320083224000086, -7.111348934999967, 0.0 ], [ 109.320534600000087, -7.111133099999961, 0.0 ], [ 109.320880600000066, -7.110989299999972, 0.0 ], [ 109.321071004000089, -7.110956555999962, 0.0 ], [ 109.321210300000075, -7.110932599999956, 0.0 ], [ 109.321462400000087, -7.110895399999947, 0.0 ], [ 109.321486300000061, -7.110834199999942, 0.0 ], [ 109.322173, -7.110812899999928, 0.0 ], [ 109.322081800000035, -7.111425099999963, 0.0 ], [ 109.322221300000081, -7.111425099999963, 0.0 ], [ 109.322253500000045, -7.111265399999979, 0.0 ], [ 109.322591400000078, -7.111329199999943, 0.0 ], [ 109.32258070000006, -7.111435699999959, 0.0 ], [ 109.322709400000065, -7.111419699999942, 0.0 ], [ 109.322702, -7.113005799999939, 0.0 ], [ 109.32207629800007, -7.113127094999925, 0.0 ] ] ] ] } },
{ "type": "Feature", "properties": { "OBJECTID_1": 34, "Shape_Leng": 0.04233785596, "Shape_Area": 2.422956e-05, "Keterangan": "Kelompok Tani Santajaya", "KT": null }, "geometry": { "type": "MultiPolygon", "coordinates": [ [ [ [ 109.327096700252582, -7.117116200352314, 0.0 ], [ 109.326892900387122, -7.116631800317293, 0.0 ], [ 109.326816899580308, -7.116393999783213, 0.0 ], [ 109.32690359962146, -7.116317800226227, 0.0 ], [ 109.326876799824504, -7.116190000268261, 0.0 ], [ 109.326909000050364, -7.115982399867789, 0.0 ], [ 109.326909000050364, -7.115705600233241, 0.0 ], [ 109.326930400317792, -7.11544480043716, 0.0 ], [ 109.326984099736478, -7.115295700036484, 0.0 ], [ 109.327139700436874, -7.115247800345685, 0.0 ], [ 109.327093933937988, -7.11480778814888, 0.0 ], [ 109.327607499886255, -7.11516999999543, 0.0 ], [ 109.327996400013888, -7.115456100418669, 0.0 ], [ 109.328201600123805, -7.115522599888038, 0.0 ], [ 109.328279399574683, -7.115638400191983, 0.0 ], [ 109.328763500135494, -7.115679599933571, 0.0 ], [ 109.329365599842617, -7.115661000155001, 0.0 ], [ 109.329806899868572, -7.11557980036747, 0.0 ], [ 109.330143499922656, -7.115708899845799, 0.0 ], [ 109.33042910032276, -7.115686299882782, 0.0 ], [ 109.330808699661816, -7.115577200427424, 0.0 ], [ 109.331140300384618, -7.115655200427113, 0.0 ], [ 109.3315248001295, -7.115599800390441, 0.0 ], [ 109.331850700049813, -7.115775500039263, 0.0 ], [ 109.332051024934913, -7.115822133484642, 0.0 ], [ 109.332195828374836, -7.116050063959221, 0.0 ], [ 109.332047111984707, -7.116383189032888, 0.0 ], [ 109.331803217644449, -7.116377240017584, 0.0 ], [ 109.331963831165922, -7.116591391979114, 0.0 ], [ 109.332076855262699, -7.116757953616627, 0.0 ], [ 109.332288627618141, -7.11663898050449, 0.0 ], [ 109.332650305267407, -7.116429588654569, 0.0 ], [ 109.332954876866154, -7.116215436692983, 0.0 ], [ 109.333126197715899, -7.115863276568916, 0.0 ], [ 109.33331655451542, -7.115525393182281, 0.0 ], [ 109.333640161164567, -7.115292206170352, 0.0 ], [ 109.334211232462451, -7.115158956320727, 0.0 ], [ 109.334426563435215, -7.114991412623567, 0.0 ], [ 109.334658560644129, -7.114973566476863, 0.0 ], [ 109.334920301131035, -7.114914079920823, 0.0 ], [ 109.335378347432822, -7.114521469190379, 0.0 ], [ 109.335681729228497, -7.114283522966161, 0.0 ], [ 109.336086237090228, -7.114176446985368, 0.0 ], [ 109.336377721754502, -7.113989659595063, 0.0 ], [ 109.336358685804782, -7.113727918208838, 0.0 ], [ 109.336653738978953, -7.113589910046244, 0.0 ], [ 109.336991622365531, -7.113337687084538, 0.0 ], [ 109.337208450709511, -7.113344329477172, 0.0 ], [ 109.337553472914522, -7.113463302589309, 0.0 ], [ 109.337777799805679, -7.113307125423432, 0.0 ], [ 109.337777799805679, -7.113550599780297, 0.0 ], [ 109.337863599625507, -7.113976399990804, 0.0 ], [ 109.337735330221392, -7.114152546602725, 0.0 ], [ 109.337734724977622, -7.114152748050856, 0.0 ], [ 109.337472984490716, -7.114206285591536, 0.0 ], [ 109.337276678675835, -7.11428361829428, 0.0 ], [ 109.337127963185026, -7.114396643290434, 0.0 ], [ 109.336932455068791, -7.114586224874358, 0.0 ], [ 109.336681006423362, -7.114729910456958, 0.0 ], [ 109.335924337538188, -7.115008308186816, 0.0 ], [ 109.335746546965652, -7.115070774196852, 0.0 ], [ 109.335531413843739, -7.11508679471973, 0.0 ], [ 109.335274744633807, -7.115058276318337, 0.0 ], [ 109.335003485722325, -7.115072553055825, 0.0 ], [ 109.334815989666254, -7.115133489319021, 0.0 ], [ 109.334717950972731, -7.11516535229913, 0.0 ], [ 109.334510937829577, -7.115322397310763, 0.0 ], [ 109.33409691064395, -7.115779252910158, 0.0 ], [ 109.334011252017717, -7.115936297921792, 0.0 ], [ 109.333932728612581, -7.116228970590498, 0.0 ], [ 109.333818514712732, -7.116443123451347, 0.0 ], [ 109.333711439631315, -7.116642996876749, 0.0 ], [ 109.333633193217338, -7.116701682136863, 0.0 ], [ 109.333552822604759, -7.11678205185018, 0.0 ], [ 109.333487387033358, -7.11684748742158, 0.0 ], [ 109.333368413921221, -7.117067588398413, 0.0 ], [ 109.333285134001812, -7.117216303889279, 0.0 ], [ 109.333201851384388, -7.117335277001359, 0.0 ], [ 109.333100724418955, -7.117448301997513, 0.0 ], [ 109.332987701221498, -7.117632709781674, 0.0 ], [ 109.332938766411019, -7.117869850213367, 0.0 ], [ 109.332969439588055, -7.118436337666822, 0.0 ], [ 109.33286000018893, -7.118835999981343, 0.0 ], [ 109.332652999636309, -7.119403000048351, 0.0 ], [ 109.332256000214272, -7.12011000027627, 0.0 ], [ 109.332094115950724, -7.12033689293321, 0.0 ], [ 109.331496350975897, -7.120946090089944, 0.0 ], [ 109.331468202195822, -7.120961124955898, 0.0 ], [ 109.330885940633721, -7.121416919355283, 0.0 ], [ 109.330483001189634, -7.121616001377333, 0.0 ], [ 109.330320892994848, -7.121628798730057, 0.0 ], [ 109.330278093359368, -7.121618388178035, 0.0 ], [ 109.330042929637557, -7.1214194032828, 0.0 ], [ 109.329937914003608, -7.121213747216586, 0.0 ], [ 109.329854000961461, -7.120968000272967, 0.0 ], [ 109.329543000109425, -7.119675000001223, 0.0 ], [ 109.329576534029854, -7.119687076097648, 0.0 ], [ 109.329612700265955, -7.119144300169296, 0.0 ], [ 109.329564400376853, -7.118947399902538, 0.0 ], [ 109.329650200196625, -7.118500200323922, 0.0 ], [ 109.329526799722089, -7.117946600155449, 0.0 ], [ 109.329403400146873, -7.117914700303118, 0.0 ], [ 109.329001100120763, -7.117600600387334, 0.0 ], [ 109.328926000434649, -7.117403700120633, 0.0 ], [ 109.328641699554851, -7.117148200029362, 0.0 ], [ 109.328024799704792, -7.117222699867682, 0.0 ], [ 109.327541999563664, -7.117398299691729, 0.0 ], [ 109.32723089978623, -7.117244000310336, 0.0 ], [ 109.327096700252582, -7.117116200352314, 0.0 ] ], [ [ 109.330369076871477, -7.119523918394066, 0.0 ], [ 109.330511844246303, -7.119654788637547, 0.0 ], [ 109.330797379895216, -7.119523918394066, 0.0 ], [ 109.331427936849877, -7.119238383644415, 0.0 ], [ 109.331546909961958, -7.119547713556074, 0.0 ], [ 109.332010905279105, -7.119773761749684, 0.0 ], [ 109.332141775522587, -7.119500124131378, 0.0 ], [ 109.332510591990285, -7.118940950864157, 0.0 ], [ 109.332618686902947, -7.118346425247296, 0.0 ], [ 109.332403516009492, -7.118274701616144, 0.0 ], [ 109.331903829298369, -7.118334188172184, 0.0 ], [ 109.331653985942751, -7.118346085303529, 0.0 ], [ 109.331796753317576, -7.118548339234394, 0.0 ], [ 109.331737266761536, -7.118786285458668, 0.0 ], [ 109.331380347425181, -7.119012334551542, 0.0 ], [ 109.330952044401386, -7.119274075038504, 0.0 ], [ 109.330369076871477, -7.119523918394066, 0.0 ] ] ] ] } },
{ "type": "Feature", "properties": { "OBJECTID_1": 35, "Shape_Leng": 0.04848847895, "Shape_Area": 2.487744e-05, "Keterangan": "Kelompok Tani Mekar Mulya", "KT": null }, "geometry": { "type": "MultiPolygon", "coordinates": [ [ [ [ 109.309303197184875, -7.109921489984742, 0.0 ], [ 109.309474518933939, -7.110449730170842, 0.0 ], [ 109.310216910182305, -7.110335516270993, 0.0 ], [ 109.310630936468613, -7.110278409321097, 0.0 ], [ 109.311409600073034, -7.110264799880554, 0.0 ], [ 109.311409600073034, -7.110568300386717, 0.0 ], [ 109.311387208752762, -7.11096551834396, 0.0 ], [ 109.311682261926933, -7.111032142819113, 0.0 ], [ 109.311796475826782, -7.110898893868807, 0.0 ], [ 109.312177189425825, -7.110994071818936, 0.0 ], [ 109.312576938974587, -7.110994071818936, 0.0 ], [ 109.312852957098357, -7.110803715019358, 0.0 ], [ 109.313167045322928, -7.110870339494511, 0.0 ], [ 109.31322415227288, -7.111212982093377, 0.0 ], [ 109.313424027496922, -7.111479481792628, 0.0 ], [ 109.313642462030032, -7.111486620611004, 0.0 ], [ 109.313742399192449, -7.111143978012137, 0.0 ], [ 109.31389230538565, -7.111143978012137, 0.0 ], [ 109.313813782879834, -7.111529450823468, 0.0 ], [ 109.313742399192449, -7.111814985573062, 0.0 ], [ 109.313799506142345, -7.111986307322184, 0.0 ], [ 109.314085041791316, -7.111943477109719, 0.0 ], [ 109.314313469591013, -7.111907784816367, 0.0 ], [ 109.314541898290031, -7.112029137534648, 0.0 ], [ 109.314806018383081, -7.111879231341391, 0.0 ], [ 109.315086300192661, -7.111666500308672, 0.0 ], [ 109.315245599804655, -7.111597900023014, 0.0 ], [ 109.315382400177668, -7.111522099765068, 0.0 ], [ 109.315421300352796, -7.111561999986236, 0.0 ], [ 109.315483000140432, -7.111532700074008, 0.0 ], [ 109.315691177905592, -7.111665080279181, 0.0 ], [ 109.31601954376697, -7.111572281035876, 0.0 ], [ 109.316247971566668, -7.111736463966565, 0.0 ], [ 109.316526368397263, -7.111893508078879, 0.0 ], [ 109.316733381540359, -7.112071967747056, 0.0 ], [ 109.316826180783664, -7.112221873940257, 0.0 ], [ 109.316728623227448, -7.112406520044829, 0.0 ], [ 109.31671434559064, -7.112713470350343, 0.0 ], [ 109.316664377459119, -7.112806269593648, 0.0 ], [ 109.316507333346806, -7.11279199285616, 0.0 ], [ 109.316393118547637, -7.112920483493497, 0.0 ], [ 109.316236074435324, -7.113063250868265, 0.0 ], [ 109.316300320203652, -7.11329167956734, 0.0 ], [ 109.316578717034247, -7.113627183347774, 0.0 ], [ 109.316664377459119, -7.113712843772703, 0.0 ], [ 109.316792868096456, -7.11315605011157, 0.0 ], [ 109.317014157977042, -7.113363063254724, 0.0 ], [ 109.317299693626012, -7.113148912192514, 0.0 ], [ 109.31745810021124, -7.113039200298829, 0.0 ], [ 109.317592367194038, -7.113034697393346, 0.0 ], [ 109.3177451997812, -7.112792900272098, 0.0 ], [ 109.317863199826888, -7.11308040004036, 0.0 ], [ 109.318099299742926, -7.113293300145642, 0.0 ], [ 109.318163700194646, -7.113559399646533, 0.0 ], [ 109.318056400282728, -7.113793700019187, 0.0 ], [ 109.317766699873346, -7.114006600124469, 0.0 ], [ 109.317412111579756, -7.114109113844506, 0.0 ], [ 109.3170791915515, -7.114326551029478, 0.0 ], [ 109.316868247471689, -7.114443953025955, 0.0 ], [ 109.316437826544529, -7.114591116286931, 0.0 ], [ 109.315932099986469, -7.114762500089284, 0.0 ], [ 109.315657311236009, -7.114870315312771, 0.0 ], [ 109.315630832496993, -7.114847221621915, 0.0 ], [ 109.315538312043543, -7.114865431994019, 0.0 ], [ 109.315674120464337, -7.114630199923738, 0.0 ], [ 109.315883513213635, -7.114363700224544, 0.0 ], [ 109.316264226812677, -7.114182861849542, 0.0 ], [ 109.316311816237373, -7.113706969401051, 0.0 ], [ 109.316416512612022, -7.113659379976355, 0.0 ], [ 109.316378440712526, -7.113535648551306, 0.0 ], [ 109.316178566387805, -7.113345290852465, 0.0 ], [ 109.315893030738835, -7.113345290852465, 0.0 ], [ 109.315607495089864, -7.113202523477639, 0.0 ], [ 109.314896524355163, -7.112750088046084, 0.0 ], [ 109.314798478467083, -7.114078165474893, 0.0 ], [ 109.314531978767889, -7.114078165474893, 0.0 ], [ 109.314408247342783, -7.114239968799495, 0.0 ], [ 109.314255961543438, -7.114249486324695, 0.0 ], [ 109.31403705126894, -7.114135272424846, 0.0 ], [ 109.313856211994676, -7.114192379374742, 0.0 ], [ 109.313406886418761, -7.114236188948894, 0.0 ], [ 109.313392608781953, -7.114148149817197, 0.0 ], [ 109.313392609681273, -7.114100560392501, 0.0 ], [ 109.313418783550105, -7.114024418392148, 0.0 ], [ 109.313418783550105, -7.113983965987188, 0.0 ], [ 109.313389040272057, -7.113817404349675, 0.0 ], [ 109.31339498838804, -7.113692483121554, 0.0 ], [ 109.313686968578793, -7.113062024193027, 0.0 ], [ 109.313858289428595, -7.112862149868249, 0.0 ], [ 109.313997488293523, -7.1126729828718, 0.0 ], [ 109.314086718127612, -7.112555199562735, 0.0 ], [ 109.314086718127612, -7.112476677056975, 0.0 ], [ 109.314111702193372, -7.112426708925454, 0.0 ], [ 109.314118841011748, -7.11235889464723, 0.0 ], [ 109.313844012691106, -7.112280371242093, 0.0 ], [ 109.313722659972825, -7.112283940651309, 0.0 ], [ 109.313615584891409, -7.11240886277875, 0.0 ], [ 109.313562046451352, -7.112476677956295, 0.0 ], [ 109.313498634354573, -7.112509989744183, 0.0 ], [ 109.31335110776746, -7.112514748956471, 0.0 ], [ 109.31315599175565, -7.112509990643503, 0.0 ], [ 109.312964445153057, -7.112546276489411, 0.0 ], [ 109.31291388167034, -7.112629558207516, 0.0 ], [ 109.312860343230341, -7.112620635134135, 0.0 ], [ 109.312774088353535, -7.112576019767459, 0.0 ], [ 109.312714601797495, -7.112534379358067, 0.0 ], [ 109.312628346021427, -7.112552225504771, 0.0 ], [ 109.31257183352335, -7.112608738002791, 0.0 ], [ 109.312461784383913, -7.112656326528224, 0.0 ], [ 109.312405271885837, -7.112712839026244, 0.0 ], [ 109.312307118978424, -7.112772325582341, 0.0 ], [ 109.312229787174999, -7.112724736157588, 0.0 ], [ 109.312158402588295, -7.112709864068904, 0.0 ], [ 109.312030506402834, -7.112709864968224, 0.0 ], [ 109.311819330297908, -7.112721762099568, 0.0 ], [ 109.311763465311742, -7.112740180215098, 0.0 ], [ 109.31153551864935, -7.112758175649219, 0.0 ], [ 109.311397550056938, -7.112806164372955, 0.0 ], [ 109.311175600973286, -7.112776171982716, 0.0 ], [ 109.310965649745015, -7.112722184780978, 0.0 ], [ 109.310929657977397, -7.112638203390304, 0.0 ], [ 109.310905663165897, -7.112482239363828, 0.0 ], [ 109.310791689385042, -7.112404258249853, 0.0 ], [ 109.310587736634773, -7.112416255205972, 0.0 ], [ 109.310323798204763, -7.11245224607427, 0.0 ], [ 109.310215822901966, -7.112500235697269, 0.0 ], [ 109.31012584303329, -7.112638203390304, 0.0 ], [ 109.310023867107816, -7.112692191491419, 0.0 ], [ 109.309843908269784, -7.112836157662514, 0.0 ], [ 109.309771924734605, -7.112956130820749, 0.0 ], [ 109.309724930661105, -7.113105372414964, 0.0 ], [ 109.309683290251712, -7.113224345527101, 0.0 ], [ 109.309635700827016, -7.113295729214485, 0.0 ], [ 109.309617854680312, -7.113355215770525, 0.0 ], [ 109.309469139189503, -7.113367112901869, 0.0 ], [ 109.309350166077365, -7.113349266755222, 0.0 ], [ 109.309225243949925, -7.11331357536119, 0.0 ], [ 109.309106271737107, -7.113343318639181, 0.0 ], [ 109.309034887150403, -7.11337901093259, 0.0 ], [ 109.308898068790882, -7.113349266755222, 0.0 ], [ 109.30870771199136, -7.113283831183821, 0.0 ], [ 109.308523303307879, -7.113212448395757, 0.0 ], [ 109.308398382079702, -7.113212448395757, 0.0 ], [ 109.308332946508358, -7.11331357536119, 0.0 ], [ 109.308291305199646, -7.113450394619974, 0.0 ], [ 109.308249664790253, -7.113616956257488, 0.0 ], [ 109.308193589362702, -7.113811864525871, 0.0 ], [ 109.308176933019126, -7.11388562692008, 0.0 ], [ 109.30816741549387, -7.113954631900697, 0.0 ], [ 109.308169794200694, -7.114154506225418, 0.0 ], [ 109.30808889298811, -7.114299653206388, 0.0 ], [ 109.308038923957213, -7.114359139762428, 0.0 ], [ 109.307981388929988, -7.114408332678352, 0.0 ], [ 109.307843610094608, -7.114169576164954, 0.0 ], [ 109.307742482229855, -7.113991116496777, 0.0 ], [ 109.307593766738989, -7.113830502975304, 0.0 ], [ 109.30743910223282, -7.113652043307127, 0.0 ], [ 109.307307372237517, -7.113544663355469, 0.0 ], [ 109.307103598452386, -7.113323677445692, 0.0 ], [ 109.306828769232368, -7.112945343452793, 0.0 ], [ 109.306546803891933, -7.11254916331319, 0.0 ], [ 109.306464711976957, -7.112399257119989, 0.0 ], [ 109.306427830779853, -7.112293133521234, 0.0 ], [ 109.306402845814716, -7.112032581938081, 0.0 ], [ 109.306335032435868, -7.111914799528336, 0.0 ], [ 109.306103034327634, -7.111797016219271, 0.0 ], [ 109.305738977072167, -7.11153646463606, 0.0 ], [ 109.305606916126351, -7.111400835180348, 0.0 ], [ 109.305546239767239, -7.111268776033114, 0.0 ], [ 109.305563720789166, -7.111131869540088, 0.0 ], [ 109.305662353035245, -7.111182134447915, 0.0 ], [ 109.305736115429454, -7.111217826741267, 0.0 ], [ 109.305841635583079, -7.111289435259209, 0.0 ], [ 109.306024030684512, -7.111339178560172, 0.0 ], [ 109.306166798059337, -7.11134393777246, 0.0 ], [ 109.306238182646098, -7.111286830822564, 0.0 ], [ 109.306356416515484, -7.111086739761163, 0.0 ], [ 109.306368576248872, -7.111075780622741, 0.0 ], [ 109.306463847728423, -7.110921439872527, 0.0 ], [ 109.306518576870872, -7.110845296972855, 0.0 ], [ 109.306568545002392, -7.110785811316077, 0.0 ], [ 109.30667799969001, -7.110690633366005, 0.0 ], [ 109.306780316458514, -7.110609730354724, 0.0 ], [ 109.306889772045395, -7.110519310717564, 0.0 ], [ 109.306951638207579, -7.110471721292868, 0.0 ], [ 109.307020643188196, -7.110438410404242, 0.0 ], [ 109.307127717370349, -7.110395579292515, 0.0 ], [ 109.307475120080767, -7.110190945755505, 0.0 ], [ 109.307634542899905, -7.110095766906056, 0.0 ], [ 109.307705926587289, -7.110060074612704, 0.0 ], [ 109.307936734892451, -7.109962517056488, 0.0 ], [ 109.308041229818969, -7.109912205383921, 0.0 ], [ 109.30809356676474, -7.109877594974989, 0.0 ], [ 109.308218488892237, -7.109764569978893, 0.0 ], [ 109.308322589915633, -7.109705084322115, 0.0 ], [ 109.308423716881066, -7.109666417970743, 0.0 ], [ 109.308515921672495, -7.109657494897419, 0.0 ], [ 109.308649765973996, -7.10966344301346, 0.0 ], [ 109.308795507406785, -7.109684264117448, 0.0 ], [ 109.308988839163646, -7.1097229295695, 0.0 ], [ 109.309110787233124, -7.109770518994196, 0.0 ], [ 109.309235708461244, -7.109788365140901, 0.0 ], [ 109.309303197184875, -7.109921489984742, 0.0 ] ], [ [ 109.307855449669319, -7.111241371891765, 0.0 ], [ 109.307655574445278, -7.111070051041963, 0.0 ], [ 109.306951254197088, -7.111298478841661, 0.0 ], [ 109.306541987123069, -7.112259781263845, 0.0 ], [ 109.307693646344774, -7.112583387912991, 0.0 ], [ 109.307855449669319, -7.111241371891765, 0.0 ] ] ] ] } }
]
}
