{
"type": "FeatureCollection",
"name": "airair",
"crs": { "type": "name", "properties": { "name": "urn:ogc:def:crs:OGC:1.3:CRS84" } },
"features": [
{ "type": "Feature", "properties": { "OBJECTID_1": 7, "Shape_Leng": 0.00147197358, "Shape_Area": 1.3689e-07, "Keterangan": "Danau Kubang", "KT": null }, "geometry": { "type": "MultiPolygon", "coordinates": [ [ [ [ 109.330447004026098, -7.113952529285768, 0.0 ], [ 109.330568356744323, -7.113981083660008, 0.0 ], [ 109.330661155987627, -7.113966806922576, 0.0 ], [ 109.330689709462604, -7.114073882003993, 0.0 ], [ 109.330646879250139, -7.114130988953946, 0.0 ], [ 109.330703986200092, -7.114295171884635, 0.0 ], [ 109.330646879250139, -7.114409385784484, 0.0 ], [ 109.330454142844474, -7.114445078077836, 0.0 ], [ 109.330305589231614, -7.114238394985875, 0.0 ], [ 109.330389897076145, -7.114081020822425, 0.0 ], [ 109.330447004026098, -7.113952529285768, 0.0 ] ] ] ] } },
{ "type": "Feature", "properties": { "OBJECTID_1": 24, "Shape_Leng": 0.00222545141, "Shape_Area": 3.2114e-07, "Keterangan": "Telaga Silating", "KT": null }, "geometry": { "type": "MultiPolygon", "coordinates": [ [ [ [ 109.322076297882916, -7.113127094639651, 0.0 ], [ 109.322513226304409, -7.113130476989852, 0.0 ], [ 109.322679788841242, -7.113237552071325, 0.0 ], [ 109.322477534910377, -7.113505241573591, 0.0 ], [ 109.322132512705366, -7.113677752226465, 0.0 ], [ 109.321936206890484, -7.113665855095064, 0.0 ], [ 109.321823182793707, -7.113350577067422, 0.0 ], [ 109.322076297882916, -7.113127094639651, 0.0 ] ] ] ] } },
{ "type": "Feature", "properties": { "OBJECTID_1": null, "Shape_Leng": null, "Shape_Area": null, "Keterangan": null, "KT": null }, "geometry": { "type": "MultiPolygon", "coordinates": [ [ [ [ 109.342040066441299, -7.110750094371859, 0.0 ], [ 109.342074478466103, -7.11075660475493, 0.0 ], [ 109.342055877371621, -7.110809617874223, 0.0 ], [ 109.342039136386575, -7.11079845721753, 0.0 ], [ 109.342039136386575, -7.11079845721753, 0.0 ], [ 109.342040066441299, -7.110750094371859, 0.0 ] ] ] ] } }
]
}
